{
  "type":"FeatureCollection",
  "features":[
    {"type":"Feature","properties":{"stop_id":"0311","name":"Mętków Mały","platform":"0","zone":"Babice-Alwernia"},"geometry":{"type":"Point","coordinates":[19.38758,50.04954]}},
    {"type":"Feature","properties":{"stop_id":"0312","name":"Mętków Szkoła","platform":"1","zone":"Babice-Alwernia"},"geometry":{"type":"Point","coordinates":[19.37988,50.05043]}},
    {"type":"Feature","properties":{"stop_id":"0313","name":"Mętków","platform":"1","zone":"Babice-Alwernia"},"geometry":{"type":"Point","coordinates":[19.37242,50.05172]}},
    {"type":"Feature","properties":{"stop_id":"0350","name":"Mętków Duży","platform":"2","zone":"Babice-Alwernia"},"geometry":{"type":"Point","coordinates":[19.37338,50.05149]}},
    {"type":"Feature","properties":{"stop_id":"0351","name":"Mętków Szkoła","platform":"2","zone":"Babice-Alwernia"},"geometry":{"type":"Point","coordinates":[19.37979,50.05034]}},
    {"type":"Feature","properties":{"stop_id":"0585","name":"Wygiełzów Skansen","platform":"1","zone":"Babice-Alwernia"},"geometry":{"type":"Point","coordinates":[19.43636,50.07596]}},
    {"type":"Feature","properties":{"stop_id":"0586","name":"Babice Urząd Gminy","platform":"1","zone":"Babice-Alwernia"},"geometry":{"type":"Point","coordinates":[19.44806,50.07034]}},
    {"type":"Feature","properties":{"stop_id":"0587","name":"Babice Zakopiańska","platform":"2","zone":"Babice-Alwernia"},"geometry":{"type":"Point","coordinates":[19.45221,50.06337]}},
    {"type":"Feature","properties":{"stop_id":"0588","name":"Olszyny","platform":"1","zone":"Babice-Alwernia"},"geometry":{"type":"Point","coordinates":[19.45244,50.05415]}},
    {"type":"Feature","properties":{"stop_id":"0589","name":"Olszyny Wieś","platform":"1","zone":"Babice-Alwernia"},"geometry":{"type":"Point","coordinates":[19.44814,50.04812]}},
    {"type":"Feature","properties":{"stop_id":"0590","name":"Jankowice Okrężna","platform":"1","zone":"Babice-Alwernia"},"geometry":{"type":"Point","coordinates":[19.44432,50.04567]}},
    {"type":"Feature","properties":{"stop_id":"0591","name":"Jankowice","platform":"1","zone":"Babice-Alwernia"},"geometry":{"type":"Point","coordinates":[19.44056,50.04067]}},
    {"type":"Feature","properties":{"stop_id":"0592","name":"Jankowice","platform":"2","zone":"Babice-Alwernia"},"geometry":{"type":"Point","coordinates":[19.44086,50.04149]}},
    {"type":"Feature","properties":{"stop_id":"0593","name":"Jankowice Okrężna","platform":"2","zone":"Babice-Alwernia"},"geometry":{"type":"Point","coordinates":[19.44455,50.04559]}},
    {"type":"Feature","properties":{"stop_id":"0594","name":"Olszyny Wieś","platform":"2","zone":"Babice-Alwernia"},"geometry":{"type":"Point","coordinates":[19.44863,50.04889]}},
    {"type":"Feature","properties":{"stop_id":"0595","name":"Olszyny","platform":"2","zone":"Babice-Alwernia"},"geometry":{"type":"Point","coordinates":[19.45293,50.05459]}},
    {"type":"Feature","properties":{"stop_id":"0596","name":"Babice Zakopiańska","platform":"1","zone":"Babice-Alwernia"},"geometry":{"type":"Point","coordinates":[19.4523,50.06348]}},
    {"type":"Feature","properties":{"stop_id":"0597","name":"Babice Urząd Gminy","platform":"2","zone":"Babice-Alwernia"},"geometry":{"type":"Point","coordinates":[19.44726,50.07074]}},
    {"type":"Feature","properties":{"stop_id":"0598","name":"Wygiełzów Skansen","platform":"2","zone":"Babice-Alwernia"},"geometry":{"type":"Point","coordinates":[19.4366,50.07595]}},
    {"type":"Feature","properties":{"stop_id":"1033","name":"Babice Zmornica","platform":"1","zone":"Babice-Alwernia"},"geometry":{"type":"Point","coordinates":[19.46197,50.06956]}},
    {"type":"Feature","properties":{"stop_id":"1034","name":"Babice Zmornica","platform":"2","zone":"Babice-Alwernia"},"geometry":{"type":"Point","coordinates":[19.46192,50.06945]}},
    {"type":"Feature","properties":{"stop_id":"1035","name":"Wygiełzów Oświęcimska","platform":"1","zone":"Babice-Alwernia"},"geometry":{"type":"Point","coordinates":[19.43372,50.07446]}},
    {"type":"Feature","properties":{"stop_id":"1036","name":"Wygiełzów Oświęcimska","platform":"2","zone":"Babice-Alwernia"},"geometry":{"type":"Point","coordinates":[19.43484,50.07449]}},
    {"type":"Feature","properties":{"stop_id":"1037","name":"Rozkochów Cisowa","platform":"0","zone":"Babice-Alwernia"},"geometry":{"type":"Point","coordinates":[19.48977,50.04532]}},
    {"type":"Feature","properties":{"stop_id":"1038","name":"Rozkochów Kapliczka","platform":"1","zone":"Babice-Alwernia"},"geometry":{"type":"Point","coordinates":[19.48538,50.04392]}},
    {"type":"Feature","properties":{"stop_id":"1039","name":"Babice Włosień","platform":"1","zone":"Babice-Alwernia"},"geometry":{"type":"Point","coordinates":[19.46486,50.0611]}},
    {"type":"Feature","properties":{"stop_id":"1040","name":"Babice Włosień","platform":"2","zone":"Babice-Alwernia"},"geometry":{"type":"Point","coordinates":[19.46399,50.06134]}},
    {"type":"Feature","properties":{"stop_id":"1041","name":"Brodła","platform":"1","zone":"Babice-Alwernia"},"geometry":{"type":"Point","coordinates":[19.58597,50.04375]}},
    {"type":"Feature","properties":{"stop_id":"1042","name":"Brodła Szkoła","platform":"1","zone":"Babice-Alwernia"},"geometry":{"type":"Point","coordinates":[19.5828,50.04346]}},
    {"type":"Feature","properties":{"stop_id":"1043","name":"Mirów","platform":"1","zone":"Babice-Alwernia"},"geometry":{"type":"Point","coordinates":[19.56724,50.0313]}},
    {"type":"Feature","properties":{"stop_id":"1044","name":"Mirów","platform":"2","zone":"Babice-Alwernia"},"geometry":{"type":"Point","coordinates":[19.5672,50.03141]}},
    {"type":"Feature","properties":{"stop_id":"1045","name":"Mirów II","platform":"1","zone":"Babice-Alwernia"},"geometry":{"type":"Point","coordinates":[19.56011,50.029]}},
    {"type":"Feature","properties":{"stop_id":"1046","name":"Mirów II","platform":"2","zone":"Babice-Alwernia"},"geometry":{"type":"Point","coordinates":[19.55949,50.02872]}},
    {"type":"Feature","properties":{"stop_id":"1047","name":"Podłęże","platform":"1","zone":"Babice-Alwernia"},"geometry":{"type":"Point","coordinates":[19.5513,50.02339]}},
    {"type":"Feature","properties":{"stop_id":"1048","name":"Podłęże","platform":"2","zone":"Babice-Alwernia"},"geometry":{"type":"Point","coordinates":[19.55096,50.02306]}},
    {"type":"Feature","properties":{"stop_id":"1049","name":"Źródła","platform":"0","zone":"Babice-Alwernia"},"geometry":{"type":"Point","coordinates":[19.51077,50.03458]}},
    {"type":"Feature","properties":{"stop_id":"1050","name":"Okleśna PKP","platform":"1","zone":"Babice-Alwernia"},"geometry":{"type":"Point","coordinates":[19.52319,50.03151]}},
    {"type":"Feature","properties":{"stop_id":"1051","name":"Okleśna PKP","platform":"2","zone":"Babice-Alwernia"},"geometry":{"type":"Point","coordinates":[19.52398,50.03169]}},
    {"type":"Feature","properties":{"stop_id":"1052","name":"Okleśna Dom Ludowy","platform":"1","zone":"Babice-Alwernia"},"geometry":{"type":"Point","coordinates":[19.53412,50.02977]}},
    {"type":"Feature","properties":{"stop_id":"1053","name":"Okleśna Dom Ludowy","platform":"2","zone":"Babice-Alwernia"},"geometry":{"type":"Point","coordinates":[19.53416,50.02983]}},
    {"type":"Feature","properties":{"stop_id":"1095","name":"Maniska Skrzyżowanie","platform":"1","zone":"Babice-Alwernia"},"geometry":{"type":"Point","coordinates":[19.37537,50.07994]}},
    {"type":"Feature","properties":{"stop_id":"1096","name":"Maniska Skrzyżowanie","platform":"2","zone":"Babice-Alwernia"},"geometry":{"type":"Point","coordinates":[19.37515,50.07986]}},
    {"type":"Feature","properties":{"stop_id":"1097","name":"Maniska Las","platform":"1","zone":"Babice-Alwernia"},"geometry":{"type":"Point","coordinates":[19.37628,50.09022]}},
    {"type":"Feature","properties":{"stop_id":"1098","name":"Maniska Las","platform":"2","zone":"Babice-Alwernia"},"geometry":{"type":"Point","coordinates":[19.37599,50.09002]}},
    {"type":"Feature","properties":{"stop_id":"1099","name":"Zagórze Wyrowiec I (Sklep)","platform":"1","zone":"Babice-Alwernia"},"geometry":{"type":"Point","coordinates":[19.38277,50.08966]}},
    {"type":"Feature","properties":{"stop_id":"1100","name":"Zagórze Wyrowiec I (Sklep)","platform":"2","zone":"Babice-Alwernia"},"geometry":{"type":"Point","coordinates":[19.38282,50.08978]}},
    {"type":"Feature","properties":{"stop_id":"1101","name":"Zagórze Wyrowiec II (Sklep)","platform":"1","zone":"Babice-Alwernia"},"geometry":{"type":"Point","coordinates":[19.39241,50.09145]}},
    {"type":"Feature","properties":{"stop_id":"1102","name":"Zagórze Wyrowiec II (Sklep)","platform":"2","zone":"Babice-Alwernia"},"geometry":{"type":"Point","coordinates":[19.39243,50.09154]}},
    {"type":"Feature","properties":{"stop_id":"1103","name":"Zagórze Szkoła","platform":"0","zone":"Babice-Alwernia"},"geometry":{"type":"Point","coordinates":[19.39794,50.09426]}},
    {"type":"Feature","properties":{"stop_id":"1104","name":"Zagórze Kościół","platform":"1","zone":"Babice-Alwernia"},"geometry":{"type":"Point","coordinates":[19.40043,50.09376]}},
    {"type":"Feature","properties":{"stop_id":"1105","name":"Zagórze Poczta","platform":"0","zone":"Babice-Alwernia"},"geometry":{"type":"Point","coordinates":[19.40626,50.09409]}},
    {"type":"Feature","properties":{"stop_id":"1106","name":"Zagórze Piaski","platform":"2","zone":"Babice-Alwernia"},"geometry":{"type":"Point","coordinates":[19.41193,50.09026]}},
    {"type":"Feature","properties":{"stop_id":"1107","name":"Zagórze Kościół","platform":"2","zone":"Babice-Alwernia"},"geometry":{"type":"Point","coordinates":[19.40239,50.09418]}},
    {"type":"Feature","properties":{"stop_id":"1108","name":"Zagórze Piaski","platform":"1","zone":"Babice-Alwernia"},"geometry":{"type":"Point","coordinates":[19.41171,50.09023]}},
    {"type":"Feature","properties":{"stop_id":"1109","name":"Zagórze Przedszkole (Żelatowa II)","platform":"1","zone":"Babice-Alwernia"},"geometry":{"type":"Point","coordinates":[19.39135,50.09569]}},
    {"type":"Feature","properties":{"stop_id":"1110","name":"Zagórze Przedszkole (Żelatowa II)","platform":"2","zone":"Babice-Alwernia"},"geometry":{"type":"Point","coordinates":[19.39108,50.096]}},
    {"type":"Feature","properties":{"stop_id":"1111","name":"Zagórze Żelatowa","platform":"1","zone":"Babice-Alwernia"},"geometry":{"type":"Point","coordinates":[19.38337,50.09896]}},
    {"type":"Feature","properties":{"stop_id":"1112","name":"Zagórze Żelatowa","platform":"2","zone":"Babice-Alwernia"},"geometry":{"type":"Point","coordinates":[19.38407,50.09881]}},
    {"type":"Feature","properties":{"stop_id":"1137","name":"Babice Podbagnie","platform":"2","zone":"Babice-Alwernia"},"geometry":{"type":"Point","coordinates":[19.45331,50.06541]}},
    {"type":"Feature","properties":{"stop_id":"1138","name":"Babice Podbagnie","platform":"1","zone":"Babice-Alwernia"},"geometry":{"type":"Point","coordinates":[19.45298,50.06547]}},
    {"type":"Feature","properties":{"stop_id":"1139","name":"Babice RSP","platform":"2","zone":"Babice-Alwernia"},"geometry":{"type":"Point","coordinates":[19.44229,50.06493]}},
    {"type":"Feature","properties":{"stop_id":"1309","name":"Nieporaz Oblaszki","platform":"1","zone":"Babice-Alwernia"},"geometry":{"type":"Point","coordinates":[19.50832,50.10451]}},
    {"type":"Feature","properties":{"stop_id":"1310","name":"Brodła Działki","platform":"2","zone":"Babice-Alwernia"},"geometry":{"type":"Point","coordinates":[19.57467,50.04563]}},
    {"type":"Feature","properties":{"stop_id":"1311","name":"Poręba Żegoty","platform":"2","zone":"Babice-Alwernia"},"geometry":{"type":"Point","coordinates":[19.5649,50.05609]}},
    {"type":"Feature","properties":{"stop_id":"1312","name":"Poręba Żegoty","platform":"1","zone":"Babice-Alwernia"},"geometry":{"type":"Point","coordinates":[19.56457,50.05656]}},
    {"type":"Feature","properties":{"stop_id":"1313","name":"Brodła Działki","platform":"1","zone":"Babice-Alwernia"},"geometry":{"type":"Point","coordinates":[19.57393,50.04625]}},
    {"type":"Feature","properties":{"stop_id":"1314","name":"Nieporaz Oblaszki","platform":"2","zone":"Babice-Alwernia"},"geometry":{"type":"Point","coordinates":[19.50998,50.10324]}},
    {"type":"Feature","properties":{"stop_id":"1340","name":"Nieporaz Sklep","platform":"1","zone":"Babice-Alwernia"},"geometry":{"type":"Point","coordinates":[19.52679,50.09934]}},
    {"type":"Feature","properties":{"stop_id":"1341","name":"Nieporaz","platform":"1","zone":"Babice-Alwernia"},"geometry":{"type":"Point","coordinates":[19.53621,50.09716]}},
    {"type":"Feature","properties":{"stop_id":"1342","name":"Nieporaz","platform":"2","zone":"Babice-Alwernia"},"geometry":{"type":"Point","coordinates":[19.53639,50.09735]}},
    {"type":"Feature","properties":{"stop_id":"1343","name":"Nieporaz Sklep","platform":"2","zone":"Babice-Alwernia"},"geometry":{"type":"Point","coordinates":[19.52703,50.09941]}},
    {"type":"Feature","properties":{"stop_id":"1344","name":"Regulice Górne","platform":"2","zone":"Babice-Alwernia"},"geometry":{"type":"Point","coordinates":[19.5333,50.09198]}},
    {"type":"Feature","properties":{"stop_id":"1345","name":"Babice RSP","platform":"1","zone":"Babice-Alwernia"},"geometry":{"type":"Point","coordinates":[19.44226,50.06501]}},
    {"type":"Feature","properties":{"stop_id":"1346","name":"Alwernia Szkoła","platform":"1","zone":"Babice-Alwernia"},"geometry":{"type":"Point","coordinates":[19.5432,50.06469]}},
    {"type":"Feature","properties":{"stop_id":"1347","name":"Alwernia Osiedle","platform":"1","zone":"Babice-Alwernia"},"geometry":{"type":"Point","coordinates":[19.53821,50.05976]}},
    {"type":"Feature","properties":{"stop_id":"1348","name":"Alwernia Szkoła","platform":"2","zone":"Babice-Alwernia"},"geometry":{"type":"Point","coordinates":[19.54316,50.06385]}},
    {"type":"Feature","properties":{"stop_id":"1349","name":"Alwernia Osiedle","platform":"2","zone":"Babice-Alwernia"},"geometry":{"type":"Point","coordinates":[19.54132,50.05987]}},
    {"type":"Feature","properties":{"stop_id":"1350","name":"Alwernia Spalona","platform":"1","zone":"Babice-Alwernia"},"geometry":{"type":"Point","coordinates":[19.52747,50.05868]}},
    {"type":"Feature","properties":{"stop_id":"1351","name":"Alwernia Brzeziny","platform":"1","zone":"Babice-Alwernia"},"geometry":{"type":"Point","coordinates":[19.52721,50.0673]}},
    {"type":"Feature","properties":{"stop_id":"1352","name":"Alwernia Brzeziny","platform":"2","zone":"Babice-Alwernia"},"geometry":{"type":"Point","coordinates":[19.52705,50.06727]}},
    {"type":"Feature","properties":{"stop_id":"1353","name":"Alwernia Spalona","platform":"2","zone":"Babice-Alwernia"},"geometry":{"type":"Point","coordinates":[19.52588,50.05869]}},
    {"type":"Feature","properties":{"stop_id":"1354","name":"Alwernia Garncarska","platform":"1","zone":"Babice-Alwernia"},"geometry":{"type":"Point","coordinates":[19.54238,50.06994]}},
    {"type":"Feature","properties":{"stop_id":"1355","name":"Alwernia Garncarska","platform":"2","zone":"Babice-Alwernia"},"geometry":{"type":"Point","coordinates":[19.54236,50.06983]}},
    {"type":"Feature","properties":{"stop_id":"1356","name":"Regulice Magazyn","platform":"1","zone":"Babice-Alwernia"},"geometry":{"type":"Point","coordinates":[19.53132,50.07751]}},
    {"type":"Feature","properties":{"stop_id":"1357","name":"Regulice Centrum","platform":"2","zone":"Babice-Alwernia"},"geometry":{"type":"Point","coordinates":[19.52892,50.08238]}},
    {"type":"Feature","properties":{"stop_id":"1358","name":"Regulice Szkoła","platform":"1","zone":"Babice-Alwernia"},"geometry":{"type":"Point","coordinates":[19.53238,50.08568]}},
    {"type":"Feature","properties":{"stop_id":"1359","name":"Regulice Szkoła","platform":"2","zone":"Babice-Alwernia"},"geometry":{"type":"Point","coordinates":[19.53126,50.08493]}},
    {"type":"Feature","properties":{"stop_id":"1360","name":"Alwernia Skowronek","platform":"1","zone":"Babice-Alwernia"},"geometry":{"type":"Point","coordinates":[19.54433,50.04249]}},
    {"type":"Feature","properties":{"stop_id":"1361","name":"Alwernia Skowronek","platform":"2","zone":"Babice-Alwernia"},"geometry":{"type":"Point","coordinates":[19.54441,50.0422]}},
    {"type":"Feature","properties":{"stop_id":"1464","name":"Regulice Centrum","platform":"1","zone":"Babice-Alwernia"},"geometry":{"type":"Point","coordinates":[19.5288,50.08243]}},
    {"type":"Feature","properties":{"stop_id":"1480","name":"Grojec Waga","platform":"1","zone":"Babice-Alwernia"},"geometry":{"type":"Point","coordinates":[19.55676,50.07984]}},
    {"type":"Feature","properties":{"stop_id":"1481","name":"Grojec Waga","platform":"2","zone":"Babice-Alwernia"},"geometry":{"type":"Point","coordinates":[19.55655,50.08049]}},
    {"type":"Feature","properties":{"stop_id":"1482","name":"Grojec II","platform":"1","zone":"Babice-Alwernia"},"geometry":{"type":"Point","coordinates":[19.55635,50.09036]}},
    {"type":"Feature","properties":{"stop_id":"1483","name":"Grojec Szkoła","platform":"1","zone":"Babice-Alwernia"},"geometry":{"type":"Point","coordinates":[19.56172,50.08768]}},
    {"type":"Feature","properties":{"stop_id":"1484","name":"Grojec Zajezdnia","platform":"1","zone":"Babice-Alwernia"},"geometry":{"type":"Point","coordinates":[19.56731,50.0861]}},
    {"type":"Feature","properties":{"stop_id":"1485","name":"Grojec Sklep","platform":"2","zone":"Babice-Alwernia"},"geometry":{"type":"Point","coordinates":[19.57674,50.0854]}},
    {"type":"Feature","properties":{"stop_id":"1486","name":"Grojec Zajezdnia","platform":"2","zone":"Babice-Alwernia"},"geometry":{"type":"Point","coordinates":[19.56746,50.08619]}},
    {"type":"Feature","properties":{"stop_id":"1487","name":"Grojec Szkoła","platform":"2","zone":"Babice-Alwernia"},"geometry":{"type":"Point","coordinates":[19.56193,50.08769]}},
    {"type":"Feature","properties":{"stop_id":"1488","name":"Grojec II","platform":"2","zone":"Babice-Alwernia"},"geometry":{"type":"Point","coordinates":[19.5551,50.08883]}},
    {"type":"Feature","properties":{"stop_id":"1490","name":"Kwaczała Centrum","platform":"1","zone":"Babice-Alwernia"},"geometry":{"type":"Point","coordinates":[19.49477,50.0631]}},
    {"type":"Feature","properties":{"stop_id":"1491","name":"Kwaczała Łazek","platform":"1","zone":"Babice-Alwernia"},"geometry":{"type":"Point","coordinates":[19.47827,50.06645]}},
    {"type":"Feature","properties":{"stop_id":"1492","name":"Kwaczała Łazek","platform":"2","zone":"Babice-Alwernia"},"geometry":{"type":"Point","coordinates":[19.48013,50.06588]}},
    {"type":"Feature","properties":{"stop_id":"1493","name":"Kwaczała Centrum","platform":"2","zone":"Babice-Alwernia"},"geometry":{"type":"Point","coordinates":[19.49098,50.06404]}},
    {"type":"Feature","properties":{"stop_id":"1494","name":"Mętków Duży","platform":"1","zone":"Babice-Alwernia"},"geometry":{"type":"Point","coordinates":[19.37337,50.05141]}},
    {"type":"Feature","properties":{"stop_id":"1499","name":"Regulice Górne","platform":"1","zone":"Babice-Alwernia"},"geometry":{"type":"Point","coordinates":[19.53339,50.09148]}},
    {"type":"Feature","properties":{"stop_id":"1500","name":"Rozkochów Kapliczka","platform":"2","zone":"Babice-Alwernia"},"geometry":{"type":"Point","coordinates":[19.48518,50.04398]}},
    {"type":"Feature","properties":{"stop_id":"1519","name":"Alwernia Cmentarz","platform":"0","zone":"Babice-Alwernia"},"geometry":{"type":"Point","coordinates":[19.55104,50.0729]}},
    {"type":"Feature","properties":{"stop_id":"1529","name":"Grojec Sklep","platform":"1","zone":"Babice-Alwernia"},"geometry":{"type":"Point","coordinates":[19.57491,50.08568]}},
    {"type":"Feature","properties":{"stop_id":"1627","name":"Jankowice Oczyszczalnia","platform":"2","zone":"Babice-Alwernia"},"geometry":{"type":"Point","coordinates":[19.43573,50.02512]}},
    {"type":"Feature","properties":{"stop_id":"1628","name":"Jankowice Oczyszczalnia","platform":"1","zone":"Babice-Alwernia"},"geometry":{"type":"Point","coordinates":[19.43634,50.02576]}},
    {"type":"Feature","properties":{"stop_id":"2885","name":"Alwernia Osiedle","platform":"3","zone":"Babice-Alwernia"},"geometry":{"type":"Point","coordinates":[19.53994,50.06031]}}
  ]
}
