{
  "type":"FeatureCollection",
  "features":[
    {"type":"Feature","properties":{"stop_id":"0880","name":"Bieruń Centrum Przesiadkowe","platform":"1","zone":"Bieruń"},"geometry":{"type":"Point","coordinates":[19.18404,50.07418]}},
    {"type":"Feature","properties":{"stop_id":"0881","name":"Bieruń Warszawska Skrzyżowanie","platform":"1","zone":"Bieruń"},"geometry":{"type":"Point","coordinates":[19.17765,50.07615]}},
    {"type":"Feature","properties":{"stop_id":"0882","name":"Bieruń Osiedle","platform":"1","zone":"Bieruń"},"geometry":{"type":"Point","coordinates":[19.17149,50.07866]}},
    {"type":"Feature","properties":{"stop_id":"0883","name":"Bieruń KWK Piast","platform":"2","zone":"Bieruń"},"geometry":{"type":"Point","coordinates":[19.16286,50.07933]}},
    {"type":"Feature","properties":{"stop_id":"0884","name":"Bieruń Granitowa","platform":"2","zone":"Bieruń"},"geometry":{"type":"Point","coordinates":[19.15508,50.08062]}},
    {"type":"Feature","properties":{"stop_id":"0885","name":"Bieruń Zarzyna Zajazd","platform":"2","zone":"Bieruń"},"geometry":{"type":"Point","coordinates":[19.14004,50.08098]}},
    {"type":"Feature","properties":{"stop_id":"0886","name":"Bieruń Zarzyna Kręta","platform":"2","zone":"Bieruń"},"geometry":{"type":"Point","coordinates":[19.13907,50.07862]}},
    {"type":"Feature","properties":{"stop_id":"0887","name":"Bieruń Turystyczna I","platform":"1","zone":"Bieruń"},"geometry":{"type":"Point","coordinates":[19.1272,50.07621]}},
    {"type":"Feature","properties":{"stop_id":"0888","name":"Bieruń Jajosty Zajazd","platform":"1","zone":"Bieruń"},"geometry":{"type":"Point","coordinates":[19.11269,50.06697]}},
    {"type":"Feature","properties":{"stop_id":"0889","name":"Bieruń Bojszowska 187","platform":"1","zone":"Bieruń"},"geometry":{"type":"Point","coordinates":[19.10821,50.06738]}},
    {"type":"Feature","properties":{"stop_id":"0890","name":"Bieruń Bojszowska 196","platform":"2","zone":"Bieruń"},"geometry":{"type":"Point","coordinates":[19.10572,50.07032]}},
    {"type":"Feature","properties":{"stop_id":"0891","name":"Bieruń Bojszowska 168","platform":"1","zone":"Bieruń"},"geometry":{"type":"Point","coordinates":[19.10325,50.07272]}},
    {"type":"Feature","properties":{"stop_id":"0892","name":"Bieruń Bojszowska 124","platform":"2","zone":"Bieruń"},"geometry":{"type":"Point","coordinates":[19.10028,50.0778]}},
    {"type":"Feature","properties":{"stop_id":"0893","name":"Bieruń Bojszowska Sklep","platform":"2","zone":"Bieruń"},"geometry":{"type":"Point","coordinates":[19.09922,50.0826]}},
    {"type":"Feature","properties":{"stop_id":"0894","name":"Bieruń Bojszowska 25","platform":"2","zone":"Bieruń"},"geometry":{"type":"Point","coordinates":[19.09669,50.08527]}},
    {"type":"Feature","properties":{"stop_id":"0895","name":"Bieruń Plac Autobusowy","platform":"1","zone":"Bieruń"},"geometry":{"type":"Point","coordinates":[19.09172,50.08891]}},
    {"type":"Feature","properties":{"stop_id":"0896","name":"Bieruń Jerzego","platform":"1","zone":"Bieruń"},"geometry":{"type":"Point","coordinates":[19.0907,50.0921]}},
    {"type":"Feature","properties":{"stop_id":"0897","name":"Tychy Osiedle Homera","platform":"2","zone":"Bieruń"},"geometry":{"type":"Point","coordinates":[19.08426,50.09974]}},
    {"type":"Feature","properties":{"stop_id":"0898","name":"Bieruń Logistyczna","platform":"1","zone":"Bieruń"},"geometry":{"type":"Point","coordinates":[19.07194,50.1009]}},
    {"type":"Feature","properties":{"stop_id":"0899","name":"Bieruń Osiedle Homera","platform":"1","zone":"Bieruń"},"geometry":{"type":"Point","coordinates":[19.08316,50.09977]}},
    {"type":"Feature","properties":{"stop_id":"0900","name":"Bieruń Osiedle Mikołaja","platform":"2","zone":"Bieruń"},"geometry":{"type":"Point","coordinates":[19.08711,50.09583]}},
    {"type":"Feature","properties":{"stop_id":"0901","name":"Bieruń Domy Polne Rycerska","platform":"1","zone":"Bieruń"},"geometry":{"type":"Point","coordinates":[19.07963,50.0907]}},
    {"type":"Feature","properties":{"stop_id":"0902","name":"Bieruń Domy Polne Szynowa","platform":"2","zone":"Bieruń"},"geometry":{"type":"Point","coordinates":[19.07341,50.09202]}},
    {"type":"Feature","properties":{"stop_id":"0903","name":"Bieruń Domy Polne Pętla","platform":"1","zone":"Bieruń"},"geometry":{"type":"Point","coordinates":[19.06613,50.09203]}},
    {"type":"Feature","properties":{"stop_id":"0904","name":"Bieruń Domy Polne Szynowa","platform":"1","zone":"Bieruń"},"geometry":{"type":"Point","coordinates":[19.07346,50.09192]}},
    {"type":"Feature","properties":{"stop_id":"0905","name":"Bieruń Domy Polne Rycerska","platform":"2","zone":"Bieruń"},"geometry":{"type":"Point","coordinates":[19.07946,50.09064]}},
    {"type":"Feature","properties":{"stop_id":"0906","name":"Bieruń Osiedle Mikołaja","platform":"1","zone":"Bieruń"},"geometry":{"type":"Point","coordinates":[19.08721,50.09579]}},
    {"type":"Feature","properties":{"stop_id":"0907","name":"Bieruń Jerzego","platform":"2","zone":"Bieruń"},"geometry":{"type":"Point","coordinates":[19.09054,50.09212]}},
    {"type":"Feature","properties":{"stop_id":"0908","name":"Bieruń Bojszowska 25","platform":"1","zone":"Bieruń"},"geometry":{"type":"Point","coordinates":[19.09662,50.08523]}},
    {"type":"Feature","properties":{"stop_id":"0909","name":"Bieruń Bojszowska Sklep","platform":"1","zone":"Bieruń"},"geometry":{"type":"Point","coordinates":[19.09914,50.08258]}},
    {"type":"Feature","properties":{"stop_id":"0910","name":"Bieruń Bojszowska 124","platform":"1","zone":"Bieruń"},"geometry":{"type":"Point","coordinates":[19.10017,50.07779]}},
    {"type":"Feature","properties":{"stop_id":"0911","name":"Bieruń Bojszowska 168","platform":"2","zone":"Bieruń"},"geometry":{"type":"Point","coordinates":[19.10317,50.07268]}},
    {"type":"Feature","properties":{"stop_id":"0912","name":"Bieruń Bojszowska 196","platform":"1","zone":"Bieruń"},"geometry":{"type":"Point","coordinates":[19.10563,50.07029]}},
    {"type":"Feature","properties":{"stop_id":"0913","name":"Bieruń Bojszowska 187","platform":"2","zone":"Bieruń"},"geometry":{"type":"Point","coordinates":[19.10811,50.06736]}},
    {"type":"Feature","properties":{"stop_id":"0914","name":"Bieruń Turystyczna II","platform":"1","zone":"Bieruń"},"geometry":{"type":"Point","coordinates":[19.11508,50.06722]}},
    {"type":"Feature","properties":{"stop_id":"0915","name":"Bieruń Turystyczna I","platform":"2","zone":"Bieruń"},"geometry":{"type":"Point","coordinates":[19.12765,50.07636]}},
    {"type":"Feature","properties":{"stop_id":"0916","name":"Bieruń Zarzyna Kręta","platform":"1","zone":"Bieruń"},"geometry":{"type":"Point","coordinates":[19.13916,50.07858]}},
    {"type":"Feature","properties":{"stop_id":"0917","name":"Bieruń Zarzyna Zajazd","platform":"1","zone":"Bieruń"},"geometry":{"type":"Point","coordinates":[19.14014,50.08094]}},
    {"type":"Feature","properties":{"stop_id":"0918","name":"Bieruń Zarzyna","platform":"1","zone":"Bieruń"},"geometry":{"type":"Point","coordinates":[19.14191,50.08327]}},
    {"type":"Feature","properties":{"stop_id":"0919","name":"Bieruń Granitowa","platform":"1","zone":"Bieruń"},"geometry":{"type":"Point","coordinates":[19.15509,50.08051]}},
    {"type":"Feature","properties":{"stop_id":"0920","name":"Bieruń KWK Piast","platform":"1","zone":"Bieruń"},"geometry":{"type":"Point","coordinates":[19.16281,50.07918]}},
    {"type":"Feature","properties":{"stop_id":"0921","name":"Bieruń Osiedle","platform":"2","zone":"Bieruń"},"geometry":{"type":"Point","coordinates":[19.16953,50.07871]}},
    {"type":"Feature","properties":{"stop_id":"0922","name":"Bieruń Kościół","platform":"1","zone":"Bieruń"},"geometry":{"type":"Point","coordinates":[19.18057,50.07358]}},
    {"type":"Feature","properties":{"stop_id":"0923","name":"Bieruń Zarzyna","platform":"2","zone":"Bieruń"},"geometry":{"type":"Point","coordinates":[19.14086,50.08349]}},
    {"type":"Feature","properties":{"stop_id":"1283","name":"Chełm Mały Górnośląska","platform":"1","zone":"Bieruń"},"geometry":{"type":"Point","coordinates":[19.2184,50.10093]}},
    {"type":"Feature","properties":{"stop_id":"1284","name":"Chełm Mały Pętla","platform":"0","zone":"Bieruń"},"geometry":{"type":"Point","coordinates":[19.2257,50.10339]}},
    {"type":"Feature","properties":{"stop_id":"1285","name":"Chełm Mały Górnośląska","platform":"2","zone":"Bieruń"},"geometry":{"type":"Point","coordinates":[19.21864,50.10096]}},
    {"type":"Feature","properties":{"stop_id":"1286","name":"Kopciowice Karłowicza","platform":"1","zone":"Bieruń"},"geometry":{"type":"Point","coordinates":[19.20571,50.09233]}},
    {"type":"Feature","properties":{"stop_id":"1287","name":"Kopciowice Karłowicza","platform":"2","zone":"Bieruń"},"geometry":{"type":"Point","coordinates":[19.20547,50.09233]}},
    {"type":"Feature","properties":{"stop_id":"1288","name":"Kopciowice Osada","platform":"1","zone":"Bieruń"},"geometry":{"type":"Point","coordinates":[19.19888,50.08515]}},
    {"type":"Feature","properties":{"stop_id":"1289","name":"Kopciowice Osada","platform":"2","zone":"Bieruń"},"geometry":{"type":"Point","coordinates":[19.1986,50.08453]}},
    {"type":"Feature","properties":{"stop_id":"1290","name":"Bieruń Wawelska Paciorkowce","platform":"1","zone":"Bieruń"},"geometry":{"type":"Point","coordinates":[19.19027,50.07715]}},
    {"type":"Feature","properties":{"stop_id":"1291","name":"Bieruń Wawelska Paciorkowce","platform":"2","zone":"Bieruń"},"geometry":{"type":"Point","coordinates":[19.19033,50.07702]}},
    {"type":"Feature","properties":{"stop_id":"1292","name":"Bieruń Poczta","platform":"1","zone":"Bieruń"},"geometry":{"type":"Point","coordinates":[19.18013,50.07581]}},
    {"type":"Feature","properties":{"stop_id":"1293","name":"Bieruń Czarnuchowice Pętla","platform":"0","zone":"Bieruń"},"geometry":{"type":"Point","coordinates":[19.21617,50.07035]}},
    {"type":"Feature","properties":{"stop_id":"1294","name":"Bieruń Ściernie","platform":"1","zone":"Bieruń"},"geometry":{"type":"Point","coordinates":[19.13337,50.08383]}},
    {"type":"Feature","properties":{"stop_id":"1295","name":"Bieruń Stacja Paliw","platform":"1","zone":"Bieruń"},"geometry":{"type":"Point","coordinates":[19.11035,50.08444]}},
    {"type":"Feature","properties":{"stop_id":"1296","name":"Bieruń Baraniec","platform":"1","zone":"Bieruń"},"geometry":{"type":"Point","coordinates":[19.10523,50.08567]}},
    {"type":"Feature","properties":{"stop_id":"1297","name":"Bieruń Baraniec","platform":"2","zone":"Bieruń"},"geometry":{"type":"Point","coordinates":[19.10446,50.08574]}},
    {"type":"Feature","properties":{"stop_id":"1298","name":"Bieruń Stacja Paliw","platform":"2","zone":"Bieruń"},"geometry":{"type":"Point","coordinates":[19.11076,50.08457]}},
    {"type":"Feature","properties":{"stop_id":"1299","name":"Bieruń Ściernie","platform":"2","zone":"Bieruń"},"geometry":{"type":"Point","coordinates":[19.13277,50.0837]}},
    {"type":"Feature","properties":{"stop_id":"1552","name":"Bieruń Patriotów Wiadukt","platform":"1","zone":"Bieruń"},"geometry":{"type":"Point","coordinates":[19.19,50.06896]}},
    {"type":"Feature","properties":{"stop_id":"1553","name":"Bieruń Bohaterów Westerplatte 7","platform":"1","zone":"Bieruń"},"geometry":{"type":"Point","coordinates":[19.18759,50.07533]}},
    {"type":"Feature","properties":{"stop_id":"1554","name":"Bieruń Równoległa","platform":"1","zone":"Bieruń"},"geometry":{"type":"Point","coordinates":[19.19379,50.07469]}},
    {"type":"Feature","properties":{"stop_id":"1625","name":"Bieruń Czarnuchowice II","platform":"1","zone":"Bieruń"},"geometry":{"type":"Point","coordinates":[19.20895,50.06865]}},
    {"type":"Feature","properties":{"stop_id":"1626","name":"Bieruń Czarnuchowice I","platform":"1","zone":"Bieruń"},"geometry":{"type":"Point","coordinates":[19.20163,50.06763]}},
    {"type":"Feature","properties":{"stop_id":"2659","name":"Bieruń Pętla","platform":"0","zone":"Bieruń"},"geometry":{"type":"Point","coordinates":[19.19165,50.06537]}},
    {"type":"Feature","properties":{"stop_id":"2660","name":"Bieruń Zabrzeg","platform":"1","zone":"Bieruń"},"geometry":{"type":"Point","coordinates":[19.18917,50.06706]}},
    {"type":"Feature","properties":{"stop_id":"2661","name":"Bieruń Zabrzeg","platform":"2","zone":"Bieruń"},"geometry":{"type":"Point","coordinates":[19.18837,50.06741]}},
    {"type":"Feature","properties":{"stop_id":"2662","name":"Bieruń Wawelska Skrzyżowanie","platform":"1","zone":"Bieruń"},"geometry":{"type":"Point","coordinates":[19.17747,50.07508]}},
    {"type":"Feature","properties":{"stop_id":"2663","name":"Bieruń Szkoła Podstawowa nr 3","platform":"1","zone":"Bieruń"},"geometry":{"type":"Point","coordinates":[19.16707,50.07724]}},
    {"type":"Feature","properties":{"stop_id":"2664","name":"Bieruń Majowa","platform":"1","zone":"Bieruń"},"geometry":{"type":"Point","coordinates":[19.16597,50.07122]}},
    {"type":"Feature","properties":{"stop_id":"2665","name":"Bieruń Groblana","platform":"2","zone":"Bieruń"},"geometry":{"type":"Point","coordinates":[19.16208,50.06624]}},
    {"type":"Feature","properties":{"stop_id":"2666","name":"Bieruń Ściernie Skalna","platform":"1","zone":"Bieruń"},"geometry":{"type":"Point","coordinates":[19.14153,50.08599]}},
    {"type":"Feature","properties":{"stop_id":"2667","name":"Bieruń Czarnuchowice I","platform":"2","zone":"Bieruń"},"geometry":{"type":"Point","coordinates":[19.20166,50.06755]}},
    {"type":"Feature","properties":{"stop_id":"2668","name":"Bieruń Czarnuchowice II","platform":"2","zone":"Bieruń"},"geometry":{"type":"Point","coordinates":[19.20908,50.06868]}},
    {"type":"Feature","properties":{"stop_id":"2669","name":"Bieruń Ściernie Pszenna","platform":"0","zone":"Bieruń"},"geometry":{"type":"Point","coordinates":[19.1363,50.0876]}},
    {"type":"Feature","properties":{"stop_id":"2670","name":"Bieruń Bohaterów Westerplatte 57","platform":"1","zone":"Bieruń"},"geometry":{"type":"Point","coordinates":[19.1874,50.07107]}},
    {"type":"Feature","properties":{"stop_id":"2671","name":"Bieruń Jajosty Peryferyjna II","platform":"1","zone":"Bieruń"},"geometry":{"type":"Point","coordinates":[19.1166,50.06446]}},
    {"type":"Feature","properties":{"stop_id":"2672","name":"Bieruń Jajosty Peryferyjna III","platform":"2","zone":"Bieruń"},"geometry":{"type":"Point","coordinates":[19.11933,50.06349]}},
    {"type":"Feature","properties":{"stop_id":"2673","name":"Bieruń Jajosty Dębowa","platform":"1","zone":"Bieruń"},"geometry":{"type":"Point","coordinates":[19.12058,50.06509]}},
    {"type":"Feature","properties":{"stop_id":"2892","name":"Bieruń Dom Kultury","platform":"2","zone":"Bieruń"},"geometry":{"type":"Point","coordinates":[19.08462,50.08484]}},
    {"type":"Feature","properties":{"stop_id":"2893","name":"Bieruń Dom Kultury","platform":"1","zone":"Bieruń"},"geometry":{"type":"Point","coordinates":[19.08476,50.08482]}},
    {"type":"Feature","properties":{"stop_id":"2894","name":"Bieruń Plac Nobla","platform":"1","zone":"Bieruń"},"geometry":{"type":"Point","coordinates":[19.08144,50.08101]}},
    {"type":"Feature","properties":{"stop_id":"2895","name":"Bieruń FSM II","platform":"1","zone":"Bieruń"},"geometry":{"type":"Point","coordinates":[19.08873,50.10271]}},
    {"type":"Feature","properties":{"stop_id":"2896","name":"Bieruń Strefa","platform":"1","zone":"Bieruń"},"geometry":{"type":"Point","coordinates":[19.0987,50.10138]}},
    {"type":"Feature","properties":{"stop_id":"2897","name":"Bieruń Strefa","platform":"2","zone":"Bieruń"},"geometry":{"type":"Point","coordinates":[19.09831,50.10135]}},
    {"type":"Feature","properties":{"stop_id":"2898","name":"Bieruń Ekonomiczna","platform":"1","zone":"Bieruń"},"geometry":{"type":"Point","coordinates":[19.10489,50.09972]}},
    {"type":"Feature","properties":{"stop_id":"2899","name":"Bieruń Ekonomiczna","platform":"2","zone":"Bieruń"},"geometry":{"type":"Point","coordinates":[19.10411,50.10052]}},
    {"type":"Feature","properties":{"stop_id":"2900","name":"Bieruń Hager","platform":"1","zone":"Bieruń"},"geometry":{"type":"Point","coordinates":[19.10769,50.09497]}},
    {"type":"Feature","properties":{"stop_id":"2901","name":"Bieruń Hager","platform":"2","zone":"Bieruń"},"geometry":{"type":"Point","coordinates":[19.10788,50.09495]}},
    {"type":"Feature","properties":{"stop_id":"2902","name":"Bieruń Przychodnia","platform":"1","zone":"Bieruń"},"geometry":{"type":"Point","coordinates":[19.16077,50.08138]}},
    {"type":"Feature","properties":{"stop_id":"2903","name":"Bieruń Lipcowa","platform":"1","zone":"Bieruń"},"geometry":{"type":"Point","coordinates":[19.15741,50.06797]}},
    {"type":"Feature","properties":{"stop_id":"2904","name":"Bieruń Żywiczna","platform":"1","zone":"Bieruń"},"geometry":{"type":"Point","coordinates":[19.15899,50.07142]}},
    {"type":"Feature","properties":{"stop_id":"3280","name":"Bieruń Kolejowa","platform":"1","zone":"Bieruń"},"geometry":{"type":"Point","coordinates":[19.10053,50.08294]}},
    {"type":"Feature","properties":{"stop_id":"3281","name":"Bieruń Borowinowa II","platform":"2","zone":"Bieruń"},"geometry":{"type":"Point","coordinates":[19.12349,50.07765]}},
    {"type":"Feature","properties":{"stop_id":"3282","name":"Bieruń Borowinowa I","platform":"2","zone":"Bieruń"},"geometry":{"type":"Point","coordinates":[19.11545,50.0814]}},
    {"type":"Feature","properties":{"stop_id":"3283","name":"Bieruń Kasztanowa","platform":"1","zone":"Bieruń"},"geometry":{"type":"Point","coordinates":[19.11192,50.08228]}},
    {"type":"Feature","properties":{"stop_id":"3284","name":"Bieruń Szybowa I","platform":"1","zone":"Bieruń"},"geometry":{"type":"Point","coordinates":[19.11507,50.07004]}},
    {"type":"Feature","properties":{"stop_id":"3285","name":"Bieruń Szybowa II","platform":"1","zone":"Bieruń"},"geometry":{"type":"Point","coordinates":[19.11365,50.06919]}},
    {"type":"Feature","properties":{"stop_id":"3286","name":"Bieruń Ośrodek Zdrowia","platform":"1","zone":"Bieruń"},"geometry":{"type":"Point","coordinates":[19.0865,50.08529]}},
    {"type":"Feature","properties":{"stop_id":"3287","name":"Bieruń Wylotowa","platform":"2","zone":"Bieruń"},"geometry":{"type":"Point","coordinates":[19.09724,50.09631]}},
    {"type":"Feature","properties":{"stop_id":"3288","name":"Bieruń Wylotowa","platform":"1","zone":"Bieruń"},"geometry":{"type":"Point","coordinates":[19.09706,50.09571]}},
    {"type":"Feature","properties":{"stop_id":"3338","name":"Bieruń Ściernie Marmurowa","platform":"1","zone":"Bieruń"},"geometry":{"type":"Point","coordinates":[19.13207,50.0861]}},
    {"type":"Feature","properties":{"stop_id":"3339","name":"Bieruń Ściernie Piaskowcowa","platform":"1","zone":"Bieruń"},"geometry":{"type":"Point","coordinates":[19.12827,50.08484]}}
  ]
}
