{
  "type":"FeatureCollection",
  "features":[
    {"type":"Feature","properties":{"stop_id":"0152","name":"Krążek Skrzyżowanie","platform":"1","zone":"Bolesław"},"geometry":{"type":"Point","coordinates":[19.46037,50.29167]}},
    {"type":"Feature","properties":{"stop_id":"0153","name":"Bolesław Cmentarz","platform":"1","zone":"Bolesław"},"geometry":{"type":"Point","coordinates":[19.46442,50.29433]}},
    {"type":"Feature","properties":{"stop_id":"0154","name":"Bolesław Szkoła","platform":"2","zone":"Bolesław"},"geometry":{"type":"Point","coordinates":[19.46994,50.29489]}},
    {"type":"Feature","properties":{"stop_id":"0155","name":"Bolesław Centrum","platform":"2","zone":"Bolesław"},"geometry":{"type":"Point","coordinates":[19.47814,50.29543]}},
    {"type":"Feature","properties":{"stop_id":"0156","name":"Bolesław Remiza","platform":"1","zone":"Bolesław"},"geometry":{"type":"Point","coordinates":[19.48032,50.29742]}},
    {"type":"Feature","properties":{"stop_id":"0157","name":"Kolonia Bolesławska","platform":"2","zone":"Bolesław"},"geometry":{"type":"Point","coordinates":[19.4727,50.30548]}},
    {"type":"Feature","properties":{"stop_id":"0158","name":"Kolonia Poręba","platform":"1","zone":"Bolesław"},"geometry":{"type":"Point","coordinates":[19.46974,50.30861]}},
    {"type":"Feature","properties":{"stop_id":"0159","name":"Kolonia Cicha","platform":"2","zone":"Bolesław"},"geometry":{"type":"Point","coordinates":[19.46466,50.31386]}},
    {"type":"Feature","properties":{"stop_id":"0160","name":"Laski Pętla","platform":"0","zone":"Bolesław"},"geometry":{"type":"Point","coordinates":[19.46087,50.31818]}},
    {"type":"Feature","properties":{"stop_id":"0161","name":"Kolonia Cicha","platform":"1","zone":"Bolesław"},"geometry":{"type":"Point","coordinates":[19.46437,50.31402]}},
    {"type":"Feature","properties":{"stop_id":"0162","name":"Kolonia Poręba","platform":"2","zone":"Bolesław"},"geometry":{"type":"Point","coordinates":[19.46965,50.30857]}},
    {"type":"Feature","properties":{"stop_id":"0163","name":"Kolonia Bolesławska","platform":"1","zone":"Bolesław"},"geometry":{"type":"Point","coordinates":[19.4721,50.30595]}},
    {"type":"Feature","properties":{"stop_id":"0164","name":"Bolesław Remiza","platform":"2","zone":"Bolesław"},"geometry":{"type":"Point","coordinates":[19.48002,50.29757]}},
    {"type":"Feature","properties":{"stop_id":"0165","name":"Bolesław Dąbrówka","platform":"1","zone":"Bolesław"},"geometry":{"type":"Point","coordinates":[19.48595,50.29582]}},
    {"type":"Feature","properties":{"stop_id":"0166","name":"Bolesław Kluczewska","platform":"2","zone":"Bolesław"},"geometry":{"type":"Point","coordinates":[19.48862,50.29746]}},
    {"type":"Feature","properties":{"stop_id":"0167","name":"Bolesław Kluczewska Mostek","platform":"2","zone":"Bolesław"},"geometry":{"type":"Point","coordinates":[19.49558,50.30352]}},
    {"type":"Feature","properties":{"stop_id":"0168","name":"Hutki Pętla","platform":"1","zone":"Bolesław"},"geometry":{"type":"Point","coordinates":[19.49887,50.30754]}},
    {"type":"Feature","properties":{"stop_id":"0169","name":"Bolesław Kluczewska Mostek","platform":"1","zone":"Bolesław"},"geometry":{"type":"Point","coordinates":[19.49511,50.3032]}},
    {"type":"Feature","properties":{"stop_id":"0170","name":"Bolesław Kluczewska","platform":"1","zone":"Bolesław"},"geometry":{"type":"Point","coordinates":[19.48852,50.29749]}},
    {"type":"Feature","properties":{"stop_id":"0171","name":"Bolesław Osadowa","platform":"2","zone":"Bolesław"},"geometry":{"type":"Point","coordinates":[19.49906,50.29401]}},
    {"type":"Feature","properties":{"stop_id":"0241","name":"Bolesław Osadowa","platform":"1","zone":"Bolesław"},"geometry":{"type":"Point","coordinates":[19.49821,50.29372]}},
    {"type":"Feature","properties":{"stop_id":"0242","name":"Bolesław Dąbrówka","platform":"2","zone":"Bolesław"},"geometry":{"type":"Point","coordinates":[19.48847,50.2955]}},
    {"type":"Feature","properties":{"stop_id":"0243","name":"Bolesław Centrum","platform":"1","zone":"Bolesław"},"geometry":{"type":"Point","coordinates":[19.47721,50.29518]}},
    {"type":"Feature","properties":{"stop_id":"0244","name":"Bolesław Szkoła","platform":"1","zone":"Bolesław"},"geometry":{"type":"Point","coordinates":[19.46852,50.2954]}},
    {"type":"Feature","properties":{"stop_id":"0245","name":"Bolesław Cmentarz","platform":"2","zone":"Bolesław"},"geometry":{"type":"Point","coordinates":[19.46403,50.29412]}},
    {"type":"Feature","properties":{"stop_id":"0246","name":"Krążek","platform":"2","zone":"Bolesław"},"geometry":{"type":"Point","coordinates":[19.46037,50.29202]}},
    {"type":"Feature","properties":{"stop_id":"0451","name":"Krzykawka Wąwóz","platform":"1","zone":"Bolesław"},"geometry":{"type":"Point","coordinates":[19.40594,50.31398]}},
    {"type":"Feature","properties":{"stop_id":"0452","name":"Krzykawka Słoneczna","platform":"2","zone":"Bolesław"},"geometry":{"type":"Point","coordinates":[19.40992,50.31288]}},
    {"type":"Feature","properties":{"stop_id":"0453","name":"Krzykawka Dworek","platform":"1","zone":"Bolesław"},"geometry":{"type":"Point","coordinates":[19.41593,50.31212]}},
    {"type":"Feature","properties":{"stop_id":"0454","name":"Krzykawa Nullo","platform":"2","zone":"Bolesław"},"geometry":{"type":"Point","coordinates":[19.42007,50.31123]}},
    {"type":"Feature","properties":{"stop_id":"0455","name":"Krzykawa Szkoła","platform":"2","zone":"Bolesław"},"geometry":{"type":"Point","coordinates":[19.42562,50.30937]}},
    {"type":"Feature","properties":{"stop_id":"0456","name":"Małobądz DINO","platform":"1","zone":"Bolesław"},"geometry":{"type":"Point","coordinates":[19.43247,50.30654]}},
    {"type":"Feature","properties":{"stop_id":"0457","name":"Małobądz","platform":"2","zone":"Bolesław"},"geometry":{"type":"Point","coordinates":[19.43657,50.30551]}},
    {"type":"Feature","properties":{"stop_id":"0458","name":"Ujków Nowy Górna","platform":"2","zone":"Bolesław"},"geometry":{"type":"Point","coordinates":[19.44365,50.30527]}},
    {"type":"Feature","properties":{"stop_id":"0459","name":"Ujków Nowy Sklep","platform":"1","zone":"Bolesław"},"geometry":{"type":"Point","coordinates":[19.44215,50.30184]}},
    {"type":"Feature","properties":{"stop_id":"0460","name":"Krze Skrzyżowanie","platform":"2","zone":"Bolesław"},"geometry":{"type":"Point","coordinates":[19.43671,50.30012]}},
    {"type":"Feature","properties":{"stop_id":"0461","name":"Krze Plac Rekreacyjny","platform":"2","zone":"Bolesław"},"geometry":{"type":"Point","coordinates":[19.42805,50.29989]}},
    {"type":"Feature","properties":{"stop_id":"0462","name":"Ujków Nowy Krze","platform":"1","zone":"Bolesław"},"geometry":{"type":"Point","coordinates":[19.44432,50.3009]}},
    {"type":"Feature","properties":{"stop_id":"0463","name":"Bolesław Ponikowska","platform":"2","zone":"Bolesław"},"geometry":{"type":"Point","coordinates":[19.47974,50.30876]}},
    {"type":"Feature","properties":{"stop_id":"0464","name":"Bolesław Wyzwolenia Bida","platform":"1","zone":"Bolesław"},"geometry":{"type":"Point","coordinates":[19.47932,50.30465]}},
    {"type":"Feature","properties":{"stop_id":"0465","name":"Bolesław Wyzwolenia Biedronka","platform":"2","zone":"Bolesław"},"geometry":{"type":"Point","coordinates":[19.47827,50.30082]}},
    {"type":"Feature","properties":{"stop_id":"0466","name":"Bolesław Wyzwolenia Biedronka","platform":"1","zone":"Bolesław"},"geometry":{"type":"Point","coordinates":[19.47833,50.30061]}},
    {"type":"Feature","properties":{"stop_id":"0467","name":"Bolesław Wyzwolenia Bida","platform":"2","zone":"Bolesław"},"geometry":{"type":"Point","coordinates":[19.47945,50.30474]}},
    {"type":"Feature","properties":{"stop_id":"0468","name":"Bolesław Ponikowska","platform":"1","zone":"Bolesław"},"geometry":{"type":"Point","coordinates":[19.47985,50.30879]}},
    {"type":"Feature","properties":{"stop_id":"0469","name":"Kolonia Laski","platform":"1","zone":"Bolesław"},"geometry":{"type":"Point","coordinates":[19.46946,50.30802]}},
    {"type":"Feature","properties":{"stop_id":"0470","name":"Krze","platform":"1","zone":"Bolesław"},"geometry":{"type":"Point","coordinates":[19.44245,50.30054]}},
    {"type":"Feature","properties":{"stop_id":"0471","name":"Krze Plac Rekreacyjny","platform":"1","zone":"Bolesław"},"geometry":{"type":"Point","coordinates":[19.42965,50.29987]}},
    {"type":"Feature","properties":{"stop_id":"0472","name":"Krze Skrzyżowanie","platform":"1","zone":"Bolesław"},"geometry":{"type":"Point","coordinates":[19.43549,50.30002]}},
    {"type":"Feature","properties":{"stop_id":"0473","name":"Ujków Nowy Sklep","platform":"2","zone":"Bolesław"},"geometry":{"type":"Point","coordinates":[19.44222,50.30196]}},
    {"type":"Feature","properties":{"stop_id":"0474","name":"Ujków Nowy Górna","platform":"1","zone":"Bolesław"},"geometry":{"type":"Point","coordinates":[19.44381,50.30529]}},
    {"type":"Feature","properties":{"stop_id":"0475","name":"Małobądz","platform":"1","zone":"Bolesław"},"geometry":{"type":"Point","coordinates":[19.43659,50.30564]}},
    {"type":"Feature","properties":{"stop_id":"0476","name":"Małobądz DINO","platform":"2","zone":"Bolesław"},"geometry":{"type":"Point","coordinates":[19.43226,50.30681]}},
    {"type":"Feature","properties":{"stop_id":"0477","name":"Krzykawa Szkoła","platform":"1","zone":"Bolesław"},"geometry":{"type":"Point","coordinates":[19.42571,50.30944]}},
    {"type":"Feature","properties":{"stop_id":"0478","name":"Krzykawa Nullo","platform":"1","zone":"Bolesław"},"geometry":{"type":"Point","coordinates":[19.42037,50.31124]}},
    {"type":"Feature","properties":{"stop_id":"0479","name":"Krzykawka Dworek","platform":"2","zone":"Bolesław"},"geometry":{"type":"Point","coordinates":[19.41579,50.31229]}},
    {"type":"Feature","properties":{"stop_id":"0480","name":"Krzykawka Słoneczna","platform":"1","zone":"Bolesław"},"geometry":{"type":"Point","coordinates":[19.40996,50.31301]}},
    {"type":"Feature","properties":{"stop_id":"0481","name":"Krzykawka Wąwóz","platform":"2","zone":"Bolesław"},"geometry":{"type":"Point","coordinates":[19.40581,50.31412]}},
    {"type":"Feature","properties":{"stop_id":"2024","name":"Krążek","platform":"1","zone":"Bolesław"},"geometry":{"type":"Point","coordinates":[19.4596,50.29174]}},
    {"type":"Feature","properties":{"stop_id":"2102","name":"Międzygórze","platform":"1","zone":"Bolesław"},"geometry":{"type":"Point","coordinates":[19.40668,50.29293]}},
    {"type":"Feature","properties":{"stop_id":"2103","name":"Podlipie","platform":"1","zone":"Bolesław"},"geometry":{"type":"Point","coordinates":[19.41945,50.29554]}},
    {"type":"Feature","properties":{"stop_id":"2104","name":"Podlipie Sołtysie","platform":"1","zone":"Bolesław"},"geometry":{"type":"Point","coordinates":[19.42552,50.2949]}},
    {"type":"Feature","properties":{"stop_id":"2105","name":"Podlipie Szkoła","platform":"1","zone":"Bolesław"},"geometry":{"type":"Point","coordinates":[19.43375,50.29382]}},
    {"type":"Feature","properties":{"stop_id":"2106","name":"Podlipie Górka","platform":"1","zone":"Bolesław"},"geometry":{"type":"Point","coordinates":[19.44036,50.29309]}},
    {"type":"Feature","properties":{"stop_id":"2107","name":"Podlipie Remiza","platform":"1","zone":"Bolesław"},"geometry":{"type":"Point","coordinates":[19.44674,50.29231]}},
    {"type":"Feature","properties":{"stop_id":"2108","name":"Krążek Podlipie","platform":"1","zone":"Bolesław"},"geometry":{"type":"Point","coordinates":[19.45428,50.29067]}},
    {"type":"Feature","properties":{"stop_id":"2109","name":"Krążek Stawy","platform":"1","zone":"Bolesław"},"geometry":{"type":"Point","coordinates":[19.45383,50.29011]}},
    {"type":"Feature","properties":{"stop_id":"2110","name":"Krążek Stawy","platform":"2","zone":"Bolesław"},"geometry":{"type":"Point","coordinates":[19.45352,50.29012]}},
    {"type":"Feature","properties":{"stop_id":"2111","name":"Krążek Podlipie","platform":"2","zone":"Bolesław"},"geometry":{"type":"Point","coordinates":[19.45396,50.29073]}},
    {"type":"Feature","properties":{"stop_id":"2112","name":"Podlipie Remiza","platform":"2","zone":"Bolesław"},"geometry":{"type":"Point","coordinates":[19.44708,50.29219]}},
    {"type":"Feature","properties":{"stop_id":"2113","name":"Podlipie Górka","platform":"2","zone":"Bolesław"},"geometry":{"type":"Point","coordinates":[19.44035,50.29301]}},
    {"type":"Feature","properties":{"stop_id":"2114","name":"Podlipie Szkoła","platform":"2","zone":"Bolesław"},"geometry":{"type":"Point","coordinates":[19.43276,50.29403]}},
    {"type":"Feature","properties":{"stop_id":"2115","name":"Podlipie Sołtysie","platform":"2","zone":"Bolesław"},"geometry":{"type":"Point","coordinates":[19.42548,50.2948]}},
    {"type":"Feature","properties":{"stop_id":"2116","name":"Podlipie","platform":"2","zone":"Bolesław"},"geometry":{"type":"Point","coordinates":[19.41956,50.29564]}},
    {"type":"Feature","properties":{"stop_id":"2126","name":"Bolesław Kwiatowa","platform":"1","zone":"Bolesław"},"geometry":{"type":"Point","coordinates":[19.46145,50.29728]}},
    {"type":"Feature","properties":{"stop_id":"2127","name":"Bolesław Kwiatowa","platform":"2","zone":"Bolesław"},"geometry":{"type":"Point","coordinates":[19.45975,50.2979]}},
    {"type":"Feature","properties":{"stop_id":"2128","name":"Bolesław Ćmielówka","platform":"1","zone":"Bolesław"},"geometry":{"type":"Point","coordinates":[19.45522,50.29904]}},
    {"type":"Feature","properties":{"stop_id":"2129","name":"Bolesław Ćmielówka","platform":"2","zone":"Bolesław"},"geometry":{"type":"Point","coordinates":[19.45529,50.29916]}},
    {"type":"Feature","properties":{"stop_id":"2130","name":"Ujków Nowy Ćmielówka","platform":"1","zone":"Bolesław"},"geometry":{"type":"Point","coordinates":[19.44571,50.30038]}},
    {"type":"Feature","properties":{"stop_id":"2131","name":"Ujków Nowy Ćmielówka","platform":"2","zone":"Bolesław"},"geometry":{"type":"Point","coordinates":[19.44588,50.30025]}},
    {"type":"Feature","properties":{"stop_id":"2157","name":"Krzykawka Dąb","platform":"1","zone":"Bolesław"},"geometry":{"type":"Point","coordinates":[19.42166,50.3155]}},
    {"type":"Feature","properties":{"stop_id":"2158","name":"Krzykawka Dąb","platform":"2","zone":"Bolesław"},"geometry":{"type":"Point","coordinates":[19.42165,50.31541]}},
    {"type":"Feature","properties":{"stop_id":"2159","name":"Krzykawka Miodowa","platform":"1","zone":"Bolesław"},"geometry":{"type":"Point","coordinates":[19.41414,50.32085]}},
    {"type":"Feature","properties":{"stop_id":"2168","name":"Krzykawa Skrzyżowanie","platform":"1","zone":"Bolesław"},"geometry":{"type":"Point","coordinates":[19.41449,50.3026]}},
    {"type":"Feature","properties":{"stop_id":"2169","name":"Krzykawa Nowa","platform":"1","zone":"Bolesław"},"geometry":{"type":"Point","coordinates":[19.4147,50.29934]}},
    {"type":"Feature","properties":{"stop_id":"2170","name":"Krzykawa Nowa","platform":"2","zone":"Bolesław"},"geometry":{"type":"Point","coordinates":[19.41359,50.29953]}},
    {"type":"Feature","properties":{"stop_id":"3279","name":"Międzygórze","platform":"2","zone":"Bolesław"},"geometry":{"type":"Point","coordinates":[19.40686,50.29291]}}
  ]
}
