{
  "type":"FeatureCollection",
  "features":[
    {"type":"Feature","properties":{"stop_id":"0647","name":"Wilczkowice na żądanie","platform":"2","zone":"Brzeszcze"},"geometry":{"type":"Point","coordinates":[19.19055,49.9913]}},
    {"type":"Feature","properties":{"stop_id":"0648","name":"Wilczkowice","platform":"2","zone":"Brzeszcze"},"geometry":{"type":"Point","coordinates":[19.19284,49.98775]}},
    {"type":"Feature","properties":{"stop_id":"0649","name":"Wilczkowice Pętla","platform":"0","zone":"Brzeszcze"},"geometry":{"type":"Point","coordinates":[19.18738,49.98742]}},
    {"type":"Feature","properties":{"stop_id":"0650","name":"Wilczkowice","platform":"1","zone":"Brzeszcze"},"geometry":{"type":"Point","coordinates":[19.19298,49.98766]}},
    {"type":"Feature","properties":{"stop_id":"0651","name":"Wilczkowice na żądanie","platform":"1","zone":"Brzeszcze"},"geometry":{"type":"Point","coordinates":[19.19068,49.99143]}},
    {"type":"Feature","properties":{"stop_id":"2537","name":"Brzeszcze Budy","platform":"1","zone":"Brzeszcze"},"geometry":{"type":"Point","coordinates":[19.17531,50.00191]}},
    {"type":"Feature","properties":{"stop_id":"2538","name":"Brzeszcze Budy","platform":"3","zone":"Brzeszcze"},"geometry":{"type":"Point","coordinates":[19.17451,50.00198]}},
    {"type":"Feature","properties":{"stop_id":"2539","name":"Brzeszcze Bór","platform":"1","zone":"Brzeszcze"},"geometry":{"type":"Point","coordinates":[19.16739,50.00369]}},
    {"type":"Feature","properties":{"stop_id":"2540","name":"Brzeszcze Kapliczka","platform":"1","zone":"Brzeszcze"},"geometry":{"type":"Point","coordinates":[19.16487,50.00512]}},
    {"type":"Feature","properties":{"stop_id":"2541","name":"Brzeszcze Dom Ludowy","platform":"0","zone":"Brzeszcze"},"geometry":{"type":"Point","coordinates":[19.15793,50.00553]}},
    {"type":"Feature","properties":{"stop_id":"2542","name":"Brzeszcze Kapliczka","platform":"2","zone":"Brzeszcze"},"geometry":{"type":"Point","coordinates":[19.16438,50.00512]}},
    {"type":"Feature","properties":{"stop_id":"2543","name":"Brzeszcze Bór","platform":"2","zone":"Brzeszcze"},"geometry":{"type":"Point","coordinates":[19.16733,50.00375]}},
    {"type":"Feature","properties":{"stop_id":"2544","name":"Brzeszcze Budy","platform":"4","zone":"Brzeszcze"},"geometry":{"type":"Point","coordinates":[19.17438,50.00199]}},
    {"type":"Feature","properties":{"stop_id":"2545","name":"Brzeszcze Budy","platform":"2","zone":"Brzeszcze"},"geometry":{"type":"Point","coordinates":[19.17472,50.00084]}},
    {"type":"Feature","properties":{"stop_id":"2551","name":"Jawiszowice Drobniaka","platform":"1","zone":"Brzeszcze"},"geometry":{"type":"Point","coordinates":[19.14772,49.97271]}},
    {"type":"Feature","properties":{"stop_id":"2552","name":"Jawiszowice Pętla","platform":"0","zone":"Brzeszcze"},"geometry":{"type":"Point","coordinates":[19.15218,49.97271]}},
    {"type":"Feature","properties":{"stop_id":"2553","name":"Brzeszcze Dworzec PKP","platform":"0","zone":"Brzeszcze"},"geometry":{"type":"Point","coordinates":[19.12933,49.97238]}},
    {"type":"Feature","properties":{"stop_id":"2554","name":"Brzeszcze Jawiszowice Osiedle","platform":"1","zone":"Brzeszcze"},"geometry":{"type":"Point","coordinates":[19.13395,49.97227]}},
    {"type":"Feature","properties":{"stop_id":"2555","name":"Brzeszcze Osiedle","platform":"1","zone":"Brzeszcze"},"geometry":{"type":"Point","coordinates":[19.13991,49.97252]}},
    {"type":"Feature","properties":{"stop_id":"2556","name":"Brzeszcze Osiedle","platform":"2","zone":"Brzeszcze"},"geometry":{"type":"Point","coordinates":[19.14028,49.97241]}},
    {"type":"Feature","properties":{"stop_id":"2557","name":"Jawiszowice Kółko","platform":"1","zone":"Brzeszcze"},"geometry":{"type":"Point","coordinates":[19.13895,49.96044]}},
    {"type":"Feature","properties":{"stop_id":"2558","name":"Jawiszowice Mickiewicza","platform":"1","zone":"Brzeszcze"},"geometry":{"type":"Point","coordinates":[19.13853,49.96604]}},
    {"type":"Feature","properties":{"stop_id":"2559","name":"Jawiszowice Osiedle Paderewskiego","platform":"1","zone":"Brzeszcze"},"geometry":{"type":"Point","coordinates":[19.13836,49.968]}},
    {"type":"Feature","properties":{"stop_id":"2560","name":"Brzeszcze Strażnica","platform":"1","zone":"Brzeszcze"},"geometry":{"type":"Point","coordinates":[19.14219,49.97868]}},
    {"type":"Feature","properties":{"stop_id":"2561","name":"Brzeszcze Kościół","platform":"1","zone":"Brzeszcze"},"geometry":{"type":"Point","coordinates":[19.14395,49.98269]}},
    {"type":"Feature","properties":{"stop_id":"2562","name":"Brzeszcze Szkoła","platform":"1","zone":"Brzeszcze"},"geometry":{"type":"Point","coordinates":[19.15033,49.98556]}},
    {"type":"Feature","properties":{"stop_id":"2563","name":"Brzeszcze Szkoła","platform":"2","zone":"Brzeszcze"},"geometry":{"type":"Point","coordinates":[19.15102,49.98546]}},
    {"type":"Feature","properties":{"stop_id":"2564","name":"Brzeszcze Kościół","platform":"2","zone":"Brzeszcze"},"geometry":{"type":"Point","coordinates":[19.14407,49.9828]}},
    {"type":"Feature","properties":{"stop_id":"2565","name":"Brzeszcze Strażnica","platform":"2","zone":"Brzeszcze"},"geometry":{"type":"Point","coordinates":[19.14243,49.97895]}},
    {"type":"Feature","properties":{"stop_id":"2566","name":"Jawiszowice Osiedle Paderewskiego","platform":"2","zone":"Brzeszcze"},"geometry":{"type":"Point","coordinates":[19.13868,49.96988]}},
    {"type":"Feature","properties":{"stop_id":"2567","name":"Jawiszowice Mickiewicza","platform":"2","zone":"Brzeszcze"},"geometry":{"type":"Point","coordinates":[19.13841,49.96542]}},
    {"type":"Feature","properties":{"stop_id":"2568","name":"Jawiszowice Kółko","platform":"2","zone":"Brzeszcze"},"geometry":{"type":"Point","coordinates":[19.13909,49.96044]}},
    {"type":"Feature","properties":{"stop_id":"2569","name":"Brzeszcze KWK","platform":"2","zone":"Brzeszcze"},"geometry":{"type":"Point","coordinates":[19.15736,49.98559]}},
    {"type":"Feature","properties":{"stop_id":"2570","name":"Brzeszcze Super Sam","platform":"2","zone":"Brzeszcze"},"geometry":{"type":"Point","coordinates":[19.15621,49.98369]}},
    {"type":"Feature","properties":{"stop_id":"2571","name":"Brzeszcze Bór (Ofiar Oświęcimia)","platform":"1","zone":"Brzeszcze"},"geometry":{"type":"Point","coordinates":[19.16438,49.99026]}},
    {"type":"Feature","properties":{"stop_id":"2572","name":"Brzeszcze Partyzantów","platform":"1","zone":"Brzeszcze"},"geometry":{"type":"Point","coordinates":[19.17297,49.99674]}},
    {"type":"Feature","properties":{"stop_id":"2573","name":"Brzeszcze Chałpy","platform":"1","zone":"Brzeszcze"},"geometry":{"type":"Point","coordinates":[19.16614,49.98303]}},
    {"type":"Feature","properties":{"stop_id":"2574","name":"Przecieszyn Krzyżówka","platform":"1","zone":"Brzeszcze"},"geometry":{"type":"Point","coordinates":[19.16885,49.97774]}},
    {"type":"Feature","properties":{"stop_id":"2575","name":"Przecieszyn Poczta","platform":"2","zone":"Brzeszcze"},"geometry":{"type":"Point","coordinates":[19.17948,49.97881]}},
    {"type":"Feature","properties":{"stop_id":"2576","name":"Przecieszyn Poczta","platform":"1","zone":"Brzeszcze"},"geometry":{"type":"Point","coordinates":[19.17932,49.97868]}},
    {"type":"Feature","properties":{"stop_id":"2577","name":"Przecieszyn Krzyżówka","platform":"2","zone":"Brzeszcze"},"geometry":{"type":"Point","coordinates":[19.1694,49.97779]}},
    {"type":"Feature","properties":{"stop_id":"2578","name":"Brzeszcze Chałpy","platform":"2","zone":"Brzeszcze"},"geometry":{"type":"Point","coordinates":[19.16394,49.98355]}},
    {"type":"Feature","properties":{"stop_id":"2579","name":"Brzeszcze Partyzantów","platform":"2","zone":"Brzeszcze"},"geometry":{"type":"Point","coordinates":[19.17376,49.99775]}},
    {"type":"Feature","properties":{"stop_id":"2580","name":"Brzeszcze Bór (Ofiar Oświęcimia)","platform":"2","zone":"Brzeszcze"},"geometry":{"type":"Point","coordinates":[19.16635,49.99112]}},
    {"type":"Feature","properties":{"stop_id":"2581","name":"Brzeszcze Super Sam","platform":"1","zone":"Brzeszcze"},"geometry":{"type":"Point","coordinates":[19.15603,49.98362]}},
    {"type":"Feature","properties":{"stop_id":"2582","name":"Brzeszcze KWK","platform":"1","zone":"Brzeszcze"},"geometry":{"type":"Point","coordinates":[19.15772,49.98602]}},
    {"type":"Feature","properties":{"stop_id":"2583","name":"Skidziń Szkoła","platform":"1","zone":"Brzeszcze"},"geometry":{"type":"Point","coordinates":[19.19517,49.9849]}},
    {"type":"Feature","properties":{"stop_id":"2584","name":"Skidziń Szkoła","platform":"2","zone":"Brzeszcze"},"geometry":{"type":"Point","coordinates":[19.19551,49.9846]}},
    {"type":"Feature","properties":{"stop_id":"2585","name":"Skidziń Kuźnia","platform":"1","zone":"Brzeszcze"},"geometry":{"type":"Point","coordinates":[19.19761,49.98103]}},
    {"type":"Feature","properties":{"stop_id":"2586","name":"Skidziń Kuźnia","platform":"2","zone":"Brzeszcze"},"geometry":{"type":"Point","coordinates":[19.19755,49.98138]}},
    {"type":"Feature","properties":{"stop_id":"2587","name":"Skidziń Sklep","platform":"1","zone":"Brzeszcze"},"geometry":{"type":"Point","coordinates":[19.19721,49.97905]}},
    {"type":"Feature","properties":{"stop_id":"2588","name":"Skidziń Sklep","platform":"2","zone":"Brzeszcze"},"geometry":{"type":"Point","coordinates":[19.19737,49.97897]}},
    {"type":"Feature","properties":{"stop_id":"2589","name":"Skidziń na żądanie","platform":"1","zone":"Brzeszcze"},"geometry":{"type":"Point","coordinates":[19.19566,49.97307]}},
    {"type":"Feature","properties":{"stop_id":"2590","name":"Skidziń na żądanie","platform":"2","zone":"Brzeszcze"},"geometry":{"type":"Point","coordinates":[19.19589,49.97348]}},
    {"type":"Feature","properties":{"stop_id":"2591","name":"Skidziń Wentylatory","platform":"1","zone":"Brzeszcze"},"geometry":{"type":"Point","coordinates":[19.19475,49.96928]}},
    {"type":"Feature","properties":{"stop_id":"2592","name":"Skidziń Wentylatory","platform":"2","zone":"Brzeszcze"},"geometry":{"type":"Point","coordinates":[19.19436,49.96897]}},
    {"type":"Feature","properties":{"stop_id":"2593","name":"Zasole Sklep","platform":"1","zone":"Brzeszcze"},"geometry":{"type":"Point","coordinates":[19.19191,49.96149]}},
    {"type":"Feature","properties":{"stop_id":"2594","name":"Zasole Sklep","platform":"2","zone":"Brzeszcze"},"geometry":{"type":"Point","coordinates":[19.19214,49.96159]}},
    {"type":"Feature","properties":{"stop_id":"2595","name":"Zasole Kościół","platform":"1","zone":"Brzeszcze"},"geometry":{"type":"Point","coordinates":[19.19163,49.95671]}},
    {"type":"Feature","properties":{"stop_id":"2596","name":"Zasole Kościół","platform":"2","zone":"Brzeszcze"},"geometry":{"type":"Point","coordinates":[19.19128,49.95648]}},
    {"type":"Feature","properties":{"stop_id":"2597","name":"Zasole Pętla","platform":"0","zone":"Brzeszcze"},"geometry":{"type":"Point","coordinates":[19.18625,49.95216]}},
    {"type":"Feature","properties":{"stop_id":"2600","name":"Brzeszcze Dworzec PKP","platform":"2","zone":"Brzeszcze"},"geometry":{"type":"Point","coordinates":[19.1309,49.97242]}},
    {"type":"Feature","properties":{"stop_id":"2613","name":"Jawiszowice Przeczna","platform":"1","zone":"Brzeszcze"},"geometry":{"type":"Point","coordinates":[19.13708,49.95683]}},
    {"type":"Feature","properties":{"stop_id":"2614","name":"Jawiszowice Przeczna","platform":"2","zone":"Brzeszcze"},"geometry":{"type":"Point","coordinates":[19.13722,49.95634]}},
    {"type":"Feature","properties":{"stop_id":"2615","name":"Jawiszowice Las","platform":"1","zone":"Brzeszcze"},"geometry":{"type":"Point","coordinates":[19.13441,49.94711]}},
    {"type":"Feature","properties":{"stop_id":"2616","name":"Jawiszowice Krzyżówka","platform":"1","zone":"Brzeszcze"},"geometry":{"type":"Point","coordinates":[19.13248,49.94029]}},
    {"type":"Feature","properties":{"stop_id":"2617","name":"Jawiszowice Przeczna I","platform":"1","zone":"Brzeszcze"},"geometry":{"type":"Point","coordinates":[19.14469,49.94063]}},
    {"type":"Feature","properties":{"stop_id":"2618","name":"Jawiszowice Przeczna II","platform":"1","zone":"Brzeszcze"},"geometry":{"type":"Point","coordinates":[19.14795,49.94479]}},
    {"type":"Feature","properties":{"stop_id":"2619","name":"Jawiszowice Przeczna III","platform":"1","zone":"Brzeszcze"},"geometry":{"type":"Point","coordinates":[19.14466,49.95105]}},
    {"type":"Feature","properties":{"stop_id":"2620","name":"Jawiszowice Hałda","platform":"2","zone":"Brzeszcze"},"geometry":{"type":"Point","coordinates":[19.1528,49.96209]}},
    {"type":"Feature","properties":{"stop_id":"2621","name":"Jawiszowice Kobylec","platform":"2","zone":"Brzeszcze"},"geometry":{"type":"Point","coordinates":[19.16113,49.95999]}},
    {"type":"Feature","properties":{"stop_id":"2622","name":"Jawiszowice Hałda","platform":"1","zone":"Brzeszcze"},"geometry":{"type":"Point","coordinates":[19.15136,49.9626]}},
    {"type":"Feature","properties":{"stop_id":"2623","name":"Jawiszowice Kobylec","platform":"1","zone":"Brzeszcze"},"geometry":{"type":"Point","coordinates":[19.15985,49.9604]}},
    {"type":"Feature","properties":{"stop_id":"2625","name":"Zasole Jawiszowice Żądanie","platform":"1","zone":"Brzeszcze"},"geometry":{"type":"Point","coordinates":[19.18001,49.96107]}},
    {"type":"Feature","properties":{"stop_id":"2626","name":"Zasole Jawiszowice Żądanie","platform":"2","zone":"Brzeszcze"},"geometry":{"type":"Point","coordinates":[19.18151,49.96078]}},
    {"type":"Feature","properties":{"stop_id":"2627","name":"Jawiszowice Jaźnik","platform":"1","zone":"Brzeszcze"},"geometry":{"type":"Point","coordinates":[19.11654,49.95045]}},
    {"type":"Feature","properties":{"stop_id":"2628","name":"Jawiszowice Olszyny","platform":"2","zone":"Brzeszcze"},"geometry":{"type":"Point","coordinates":[19.12057,49.95494]}},
    {"type":"Feature","properties":{"stop_id":"2629","name":"Jawiszowice Olszyny","platform":"1","zone":"Brzeszcze"},"geometry":{"type":"Point","coordinates":[19.12034,49.95503]}},
    {"type":"Feature","properties":{"stop_id":"2630","name":"Jawiszowice na żądanie","platform":"1","zone":"Brzeszcze"},"geometry":{"type":"Point","coordinates":[19.12871,49.95664]}},
    {"type":"Feature","properties":{"stop_id":"2631","name":"Jawiszowice na żądanie","platform":"2","zone":"Brzeszcze"},"geometry":{"type":"Point","coordinates":[19.12877,49.95675]}},
    {"type":"Feature","properties":{"stop_id":"2632","name":"Jawiszowice Cmentarz","platform":"2","zone":"Brzeszcze"},"geometry":{"type":"Point","coordinates":[19.13501,49.9583]}},
    {"type":"Feature","properties":{"stop_id":"2633","name":"Jawiszowice Cmentarz","platform":"1","zone":"Brzeszcze"},"geometry":{"type":"Point","coordinates":[19.13503,49.95819]}},
    {"type":"Feature","properties":{"stop_id":"2919","name":"Jawiszowice Szkoła","platform":"1","zone":"Brzeszcze"},"geometry":{"type":"Point","coordinates":[19.14,49.96187]}},
    {"type":"Feature","properties":{"stop_id":"2920","name":"Jawiszowice Szkoła","platform":"2","zone":"Brzeszcze"},"geometry":{"type":"Point","coordinates":[19.14102,49.96168]}},
    {"type":"Feature","properties":{"stop_id":"3326","name":"Skidziń Bar","platform":"2","zone":"Brzeszcze"},"geometry":{"type":"Point","coordinates":[19.19824,49.97764]}},
    {"type":"Feature","properties":{"stop_id":"3327","name":"Skidziń Bar","platform":"1","zone":"Brzeszcze"},"geometry":{"type":"Point","coordinates":[19.19785,49.97802]}}
  ]
}
