{
  "type":"FeatureCollection",
  "features":[
    {"type":"Feature","properties":{"stop_id":"0106","name":"Bukowno Przymiarki","platform":"0","zone":"Bukowno"},"geometry":{"type":"Point","coordinates":[19.39633,50.27341]}},
    {"type":"Feature","properties":{"stop_id":"0139","name":"Bukowno Przymiarki PKP","platform":"2","zone":"Bukowno"},"geometry":{"type":"Point","coordinates":[19.40841,50.27593]}},
    {"type":"Feature","properties":{"stop_id":"0140","name":"Bukowno Sklep","platform":"2","zone":"Bukowno"},"geometry":{"type":"Point","coordinates":[19.42849,50.28226]}},
    {"type":"Feature","properties":{"stop_id":"0141","name":"Bukowno Skotnica","platform":"2","zone":"Bukowno"},"geometry":{"type":"Point","coordinates":[19.43549,50.27989]}},
    {"type":"Feature","properties":{"stop_id":"0142","name":"Bukowno Stare Skrzyżowanie","platform":"0","zone":"Bukowno"},"geometry":{"type":"Point","coordinates":[19.4431,50.27695]}},
    {"type":"Feature","properties":{"stop_id":"0143","name":"Bukowno Cmentarz","platform":"2","zone":"Bukowno"},"geometry":{"type":"Point","coordinates":[19.44349,50.27391]}},
    {"type":"Feature","properties":{"stop_id":"0144","name":"Bukowno Nowa OSP","platform":"1","zone":"Bukowno"},"geometry":{"type":"Point","coordinates":[19.45119,50.26976]}},
    {"type":"Feature","properties":{"stop_id":"0145","name":"Bukowno Nowa","platform":"2","zone":"Bukowno"},"geometry":{"type":"Point","coordinates":[19.4599,50.26829]}},
    {"type":"Feature","properties":{"stop_id":"0146","name":"Bukowno Urząd Miasta","platform":"2","zone":"Bukowno"},"geometry":{"type":"Point","coordinates":[19.46259,50.26706]}},
    {"type":"Feature","properties":{"stop_id":"0147","name":"Bukowno Dworzec PKP","platform":"0","zone":"Bukowno"},"geometry":{"type":"Point","coordinates":[19.46233,50.26462]}},
    {"type":"Feature","properties":{"stop_id":"0148","name":"Bukowno Urząd Miasta","platform":"1","zone":"Bukowno"},"geometry":{"type":"Point","coordinates":[19.46274,50.26727]}},
    {"type":"Feature","properties":{"stop_id":"0149","name":"Bukowno Skałka","platform":"1","zone":"Bukowno"},"geometry":{"type":"Point","coordinates":[19.46703,50.27316]}},
    {"type":"Feature","properties":{"stop_id":"0150","name":"Bukowno ZGH","platform":"2","zone":"Bukowno"},"geometry":{"type":"Point","coordinates":[19.4698,50.2789]}},
    {"type":"Feature","properties":{"stop_id":"0151","name":"Bukowno Diana","platform":"1","zone":"Bukowno"},"geometry":{"type":"Point","coordinates":[19.46929,50.28367]}},
    {"type":"Feature","properties":{"stop_id":"0247","name":"Bukowno Diana","platform":"2","zone":"Bukowno"},"geometry":{"type":"Point","coordinates":[19.46909,50.28357]}},
    {"type":"Feature","properties":{"stop_id":"0248","name":"Bukowno ZGH","platform":"1","zone":"Bukowno"},"geometry":{"type":"Point","coordinates":[19.46983,50.27836]}},
    {"type":"Feature","properties":{"stop_id":"0249","name":"Bukowno Skałka","platform":"2","zone":"Bukowno"},"geometry":{"type":"Point","coordinates":[19.46658,50.27282]}},
    {"type":"Feature","properties":{"stop_id":"0250","name":"Bukowno Nowa","platform":"1","zone":"Bukowno"},"geometry":{"type":"Point","coordinates":[19.46026,50.26832]}},
    {"type":"Feature","properties":{"stop_id":"0251","name":"Bukowno Nowa OSP","platform":"2","zone":"Bukowno"},"geometry":{"type":"Point","coordinates":[19.45112,50.26989]}},
    {"type":"Feature","properties":{"stop_id":"0252","name":"Bukowno Cmentarz","platform":"1","zone":"Bukowno"},"geometry":{"type":"Point","coordinates":[19.44357,50.27404]}},
    {"type":"Feature","properties":{"stop_id":"0253","name":"Bukowno Remiza","platform":"0","zone":"Bukowno"},"geometry":{"type":"Point","coordinates":[19.44283,50.27738]}},
    {"type":"Feature","properties":{"stop_id":"0254","name":"Bukowno Skotnica","platform":"1","zone":"Bukowno"},"geometry":{"type":"Point","coordinates":[19.43554,50.27996]}},
    {"type":"Feature","properties":{"stop_id":"0255","name":"Bukowno Sklep","platform":"1","zone":"Bukowno"},"geometry":{"type":"Point","coordinates":[19.42854,50.28229]}},
    {"type":"Feature","properties":{"stop_id":"0256","name":"Bukowno Przymiarki PKP","platform":"1","zone":"Bukowno"},"geometry":{"type":"Point","coordinates":[19.40885,50.27657]}},
    {"type":"Feature","properties":{"stop_id":"0724","name":"Bukowno Leśna","platform":"1","zone":"Bukowno"},"geometry":{"type":"Point","coordinates":[19.46701,50.26915]}},
    {"type":"Feature","properties":{"stop_id":"0725","name":"Bukowno Leśna Krzyżówka","platform":"2","zone":"Bukowno"},"geometry":{"type":"Point","coordinates":[19.47078,50.26809]}},
    {"type":"Feature","properties":{"stop_id":"0726","name":"Bukowno Leśna Pętla","platform":"0","zone":"Bukowno"},"geometry":{"type":"Point","coordinates":[19.48406,50.26604]}},
    {"type":"Feature","properties":{"stop_id":"0727","name":"Bukowno Stadion","platform":"1","zone":"Bukowno"},"geometry":{"type":"Point","coordinates":[19.47396,50.26336]}},
    {"type":"Feature","properties":{"stop_id":"0728","name":"Bukowno Park","platform":"2","zone":"Bukowno"},"geometry":{"type":"Point","coordinates":[19.46751,50.26289]}},
    {"type":"Feature","properties":{"stop_id":"0729","name":"Bukowno Tunel","platform":"1","zone":"Bukowno"},"geometry":{"type":"Point","coordinates":[19.46056,50.26295]}},
    {"type":"Feature","properties":{"stop_id":"0730","name":"Bukowno Kościół","platform":"1","zone":"Bukowno"},"geometry":{"type":"Point","coordinates":[19.452,50.26331]}},
    {"type":"Feature","properties":{"stop_id":"0731","name":"Bukowno Skrzyżowanie","platform":"2","zone":"Bukowno"},"geometry":{"type":"Point","coordinates":[19.44584,50.26382]}},
    {"type":"Feature","properties":{"stop_id":"0732","name":"Bukowno Borowska","platform":"1","zone":"Bukowno"},"geometry":{"type":"Point","coordinates":[19.4431,50.26378]}},
    {"type":"Feature","properties":{"stop_id":"0733","name":"Bukowno Bór Biskupi Przeń","platform":"2","zone":"Bukowno"},"geometry":{"type":"Point","coordinates":[19.43013,50.24204]}},
    {"type":"Feature","properties":{"stop_id":"0734","name":"Bukowno Bór Biskupi","platform":"1","zone":"Bukowno"},"geometry":{"type":"Point","coordinates":[19.42836,50.23916]}},
    {"type":"Feature","properties":{"stop_id":"0735","name":"Bukowno Bór Biskupi OSP","platform":"0","zone":"Bukowno"},"geometry":{"type":"Point","coordinates":[19.42754,50.23629]}},
    {"type":"Feature","properties":{"stop_id":"0736","name":"Bukowno Bór Biskupi Pętla","platform":"0","zone":"Bukowno"},"geometry":{"type":"Point","coordinates":[19.42635,50.23355]}},
    {"type":"Feature","properties":{"stop_id":"0737","name":"Bukowno Bór Biskupi","platform":"2","zone":"Bukowno"},"geometry":{"type":"Point","coordinates":[19.42846,50.23907]}},
    {"type":"Feature","properties":{"stop_id":"0738","name":"Bukowno Bór Biskupi Przeń","platform":"1","zone":"Bukowno"},"geometry":{"type":"Point","coordinates":[19.4306,50.24228]}},
    {"type":"Feature","properties":{"stop_id":"0739","name":"Bukowno Borowska","platform":"2","zone":"Bukowno"},"geometry":{"type":"Point","coordinates":[19.44323,50.2637]}},
    {"type":"Feature","properties":{"stop_id":"0740","name":"Bukowno Skrzyżowanie","platform":"1","zone":"Bukowno"},"geometry":{"type":"Point","coordinates":[19.446,50.26372]}},
    {"type":"Feature","properties":{"stop_id":"0741","name":"Bukowno Kościół","platform":"2","zone":"Bukowno"},"geometry":{"type":"Point","coordinates":[19.45206,50.26321]}},
    {"type":"Feature","properties":{"stop_id":"0742","name":"Bukowno Tunel","platform":"2","zone":"Bukowno"},"geometry":{"type":"Point","coordinates":[19.46066,50.26287]}},
    {"type":"Feature","properties":{"stop_id":"0743","name":"Bukowno Park","platform":"1","zone":"Bukowno"},"geometry":{"type":"Point","coordinates":[19.46759,50.26278]}},
    {"type":"Feature","properties":{"stop_id":"0744","name":"Bukowno Stadion","platform":"2","zone":"Bukowno"},"geometry":{"type":"Point","coordinates":[19.47415,50.26327]}},
    {"type":"Feature","properties":{"stop_id":"0745","name":"Bukowno Leśna Krzyżówka","platform":"1","zone":"Bukowno"},"geometry":{"type":"Point","coordinates":[19.47078,50.26819]}},
    {"type":"Feature","properties":{"stop_id":"0746","name":"Bukowno Leśna","platform":"2","zone":"Bukowno"},"geometry":{"type":"Point","coordinates":[19.46643,50.26944]}},
    {"type":"Feature","properties":{"stop_id":"0955","name":"Bukowno Diabla Góra","platform":"1","zone":"Bukowno"},"geometry":{"type":"Point","coordinates":[19.46631,50.24195]}},
    {"type":"Feature","properties":{"stop_id":"0956","name":"Bukowno Diabla Góra","platform":"2","zone":"Bukowno"},"geometry":{"type":"Point","coordinates":[19.4659,50.24163]}},
    {"type":"Feature","properties":{"stop_id":"0957","name":"Bukowno Podlesie Ogrodowa","platform":"1","zone":"Bukowno"},"geometry":{"type":"Point","coordinates":[19.46448,50.23654]}},
    {"type":"Feature","properties":{"stop_id":"0958","name":"Bukowno Podlesie Ogrodowa","platform":"2","zone":"Bukowno"},"geometry":{"type":"Point","coordinates":[19.46449,50.23624]}},
    {"type":"Feature","properties":{"stop_id":"0959","name":"Bukowno Podlesie Ogrodowa Pętla","platform":"0","zone":"Bukowno"},"geometry":{"type":"Point","coordinates":[19.47476,50.23333]}},
    {"type":"Feature","properties":{"stop_id":"0960","name":"Bukowno Podlesie Kościół","platform":"1","zone":"Bukowno"},"geometry":{"type":"Point","coordinates":[19.46761,50.235]}},
    {"type":"Feature","properties":{"stop_id":"0961","name":"Bukowno Podlesie Kościół","platform":"2","zone":"Bukowno"},"geometry":{"type":"Point","coordinates":[19.46714,50.23526]}},
    {"type":"Feature","properties":{"stop_id":"0962","name":"Bukowno Ogrodowa na żądanie","platform":"1","zone":"Bukowno"},"geometry":{"type":"Point","coordinates":[19.46887,50.24427]}},
    {"type":"Feature","properties":{"stop_id":"0963","name":"Bukowno Ogrodowa na żądanie","platform":"2","zone":"Bukowno"},"geometry":{"type":"Point","coordinates":[19.46842,50.24406]}},
    {"type":"Feature","properties":{"stop_id":"0964","name":"Bukowno Ogrodowa","platform":"1","zone":"Bukowno"},"geometry":{"type":"Point","coordinates":[19.47177,50.24776]}},
    {"type":"Feature","properties":{"stop_id":"0965","name":"Bukowno Ogrodowa","platform":"2","zone":"Bukowno"},"geometry":{"type":"Point","coordinates":[19.47158,50.24774]}},
    {"type":"Feature","properties":{"stop_id":"1495","name":"Bukowno Mostowa","platform":"1","zone":"Bukowno"},"geometry":{"type":"Point","coordinates":[19.45708,50.25831]}},
    {"type":"Feature","properties":{"stop_id":"1496","name":"Bukowno Mostowa","platform":"2","zone":"Bukowno"},"geometry":{"type":"Point","coordinates":[19.45726,50.2587]}},
    {"type":"Feature","properties":{"stop_id":"1497","name":"Bukowno Pocztowa","platform":"1","zone":"Bukowno"},"geometry":{"type":"Point","coordinates":[19.463,50.26229]}},
    {"type":"Feature","properties":{"stop_id":"1498","name":"Bukowno Pocztowa","platform":"2","zone":"Bukowno"},"geometry":{"type":"Point","coordinates":[19.4632,50.26249]}},
    {"type":"Feature","properties":{"stop_id":"1701","name":"Bukowno Parking","platform":"1","zone":"Bukowno"},"geometry":{"type":"Point","coordinates":[19.47796,50.26316]}},
    {"type":"Feature","properties":{"stop_id":"1702","name":"Bukowno Parking","platform":"2","zone":"Bukowno"},"geometry":{"type":"Point","coordinates":[19.47786,50.26307]}},
    {"type":"Feature","properties":{"stop_id":"1703","name":"Bukowno Polis","platform":"1","zone":"Bukowno"},"geometry":{"type":"Point","coordinates":[19.49541,50.25264]}},
    {"type":"Feature","properties":{"stop_id":"1704","name":"Bukowno Polis","platform":"2","zone":"Bukowno"},"geometry":{"type":"Point","coordinates":[19.49525,50.25252]}},
    {"type":"Feature","properties":{"stop_id":"1705","name":"Bukowno Leśniczówka","platform":"1","zone":"Bukowno"},"geometry":{"type":"Point","coordinates":[19.51008,50.25315]}},
    {"type":"Feature","properties":{"stop_id":"1706","name":"Bukowno Leśniczówka","platform":"2","zone":"Bukowno"},"geometry":{"type":"Point","coordinates":[19.51034,50.25298]}},
    {"type":"Feature","properties":{"stop_id":"2021","name":"Bukowno Wygiełza Pętla","platform":"0","zone":"Bukowno"},"geometry":{"type":"Point","coordinates":[19.45492,50.27312]}},
    {"type":"Feature","properties":{"stop_id":"2022","name":"Bukowno Starczynowska","platform":"2","zone":"Bukowno"},"geometry":{"type":"Point","coordinates":[19.46018,50.27111]}},
    {"type":"Feature","properties":{"stop_id":"2023","name":"Bukowno Starczynowska","platform":"1","zone":"Bukowno"},"geometry":{"type":"Point","coordinates":[19.45991,50.27127]}},
    {"type":"Feature","properties":{"stop_id":"2121","name":"Bukowno Stare Skrzyżowanie","platform":"2","zone":"Bukowno"},"geometry":{"type":"Point","coordinates":[19.44365,50.27767]}},
    {"type":"Feature","properties":{"stop_id":"2122","name":"Bukowno Wodąca","platform":"1","zone":"Bukowno"},"geometry":{"type":"Point","coordinates":[19.44619,50.28186]}},
    {"type":"Feature","properties":{"stop_id":"2123","name":"Bukowno Wodąca","platform":"2","zone":"Bukowno"},"geometry":{"type":"Point","coordinates":[19.44604,50.28185]}},
    {"type":"Feature","properties":{"stop_id":"2124","name":"Bukowno Wodąca Krzyżówka","platform":"2","zone":"Bukowno"},"geometry":{"type":"Point","coordinates":[19.44882,50.28636]}},
    {"type":"Feature","properties":{"stop_id":"2125","name":"Bukowno Wodąca Krzyżówka","platform":"1","zone":"Bukowno"},"geometry":{"type":"Point","coordinates":[19.44911,50.28657]}},
    {"type":"Feature","properties":{"stop_id":"2163","name":"Bukowno Stare Wieś","platform":"1","zone":"Bukowno"},"geometry":{"type":"Point","coordinates":[19.41953,50.28488]}},
    {"type":"Feature","properties":{"stop_id":"2164","name":"Bukowno Stare Wieś","platform":"2","zone":"Bukowno"},"geometry":{"type":"Point","coordinates":[19.41922,50.28483]}},
    {"type":"Feature","properties":{"stop_id":"2165","name":"Bukowno Świnia Góra","platform":"1","zone":"Bukowno"},"geometry":{"type":"Point","coordinates":[19.41009,50.28634]}},
    {"type":"Feature","properties":{"stop_id":"2166","name":"Bukowno Świnia Góra","platform":"2","zone":"Bukowno"},"geometry":{"type":"Point","coordinates":[19.4099,50.28628]}},
    {"type":"Feature","properties":{"stop_id":"2167","name":"Bukowno Sławkowska Pętla","platform":"0","zone":"Bukowno"},"geometry":{"type":"Point","coordinates":[19.40309,50.28714]}}
  ]
}
