{
  "type":"FeatureCollection",
  "features":[
    {"type":"Feature","properties":{"stop_id":"0373","name":"Chełmek Osiedle DW780","platform":"2","zone":"Chełmek"},"geometry":{"type":"Point","coordinates":[19.26297,50.10069]}},
    {"type":"Feature","properties":{"stop_id":"0374","name":"Chełmek Policja","platform":"2","zone":"Chełmek"},"geometry":{"type":"Point","coordinates":[19.25201,50.10019]}},
    {"type":"Feature","properties":{"stop_id":"0375","name":"Chełmek Remiza","platform":"1","zone":"Chełmek"},"geometry":{"type":"Point","coordinates":[19.2494,50.10146]}},
    {"type":"Feature","properties":{"stop_id":"0376","name":"Chełmek Mickiewicza","platform":"2","zone":"Chełmek"},"geometry":{"type":"Point","coordinates":[19.24942,50.10581]}},
    {"type":"Feature","properties":{"stop_id":"0377","name":"Chełmek Młyny","platform":"1","zone":"Chełmek"},"geometry":{"type":"Point","coordinates":[19.24333,50.10899]}},
    {"type":"Feature","properties":{"stop_id":"0378","name":"Chełmek Jagiellońska","platform":"1","zone":"Chełmek"},"geometry":{"type":"Point","coordinates":[19.2375,50.10731]}},
    {"type":"Feature","properties":{"stop_id":"0379","name":"Chełmek Dom Ludowy","platform":"1","zone":"Chełmek"},"geometry":{"type":"Point","coordinates":[19.23277,50.10211]}},
    {"type":"Feature","properties":{"stop_id":"0380","name":"Chełmek Chrobrego Szkoła","platform":"1","zone":"Chełmek"},"geometry":{"type":"Point","coordinates":[19.23781,50.09761]}},
    {"type":"Feature","properties":{"stop_id":"0381","name":"Chełmek Policja","platform":"1","zone":"Chełmek"},"geometry":{"type":"Point","coordinates":[19.25216,50.09996]}},
    {"type":"Feature","properties":{"stop_id":"0382","name":"Chełmek Osiedle DW780","platform":"1","zone":"Chełmek"},"geometry":{"type":"Point","coordinates":[19.26452,50.10056]}},
    {"type":"Feature","properties":{"stop_id":"0841","name":"Bobrek Świnna","platform":"2","zone":"Chełmek"},"geometry":{"type":"Point","coordinates":[19.23868,50.06654]}},
    {"type":"Feature","properties":{"stop_id":"0842","name":"Gorzów Szkolna","platform":"2","zone":"Chełmek"},"geometry":{"type":"Point","coordinates":[19.23317,50.07416]}},
    {"type":"Feature","properties":{"stop_id":"0843","name":"Gorzów Szkoła","platform":"2","zone":"Chełmek"},"geometry":{"type":"Point","coordinates":[19.22572,50.07449]}},
    {"type":"Feature","properties":{"stop_id":"0844","name":"Gorzów Remiza","platform":"2","zone":"Chełmek"},"geometry":{"type":"Point","coordinates":[19.22749,50.08255]}},
    {"type":"Feature","properties":{"stop_id":"0845","name":"Gorzów Granica","platform":"2","zone":"Chełmek"},"geometry":{"type":"Point","coordinates":[19.23129,50.08699]}},
    {"type":"Feature","properties":{"stop_id":"0846","name":"Chełmek Oświęcimska","platform":"2","zone":"Chełmek"},"geometry":{"type":"Point","coordinates":[19.23058,50.09582]}},
    {"type":"Feature","properties":{"stop_id":"0847","name":"Chełmek Sadowa","platform":"1","zone":"Chełmek"},"geometry":{"type":"Point","coordinates":[19.23279,50.09564]}},
    {"type":"Feature","properties":{"stop_id":"0848","name":"Chełmek Leśna","platform":"1","zone":"Chełmek"},"geometry":{"type":"Point","coordinates":[19.23853,50.09506]}},
    {"type":"Feature","properties":{"stop_id":"0849","name":"Chełmek Mieszka I","platform":"2","zone":"Chełmek"},"geometry":{"type":"Point","coordinates":[19.23145,50.09857]}},
    {"type":"Feature","properties":{"stop_id":"0850","name":"Chełmek Dom Ludowy","platform":"2","zone":"Chełmek"},"geometry":{"type":"Point","coordinates":[19.23281,50.10193]}},
    {"type":"Feature","properties":{"stop_id":"0851","name":"Chełmek Jagiellońska","platform":"2","zone":"Chełmek"},"geometry":{"type":"Point","coordinates":[19.23758,50.10723]}},
    {"type":"Feature","properties":{"stop_id":"0852","name":"Chełmek Młyny","platform":"2","zone":"Chełmek"},"geometry":{"type":"Point","coordinates":[19.24337,50.10886]}},
    {"type":"Feature","properties":{"stop_id":"0853","name":"Chełmek Mickiewicza","platform":"1","zone":"Chełmek"},"geometry":{"type":"Point","coordinates":[19.24928,50.10575]}},
    {"type":"Feature","properties":{"stop_id":"0854","name":"Chełmek Remiza","platform":"2","zone":"Chełmek"},"geometry":{"type":"Point","coordinates":[19.24932,50.10168]}},
    {"type":"Feature","properties":{"stop_id":"0855","name":"Chełmek Cmentarz","platform":"1","zone":"Chełmek"},"geometry":{"type":"Point","coordinates":[19.23997,50.10131]}},
    {"type":"Feature","properties":{"stop_id":"0856","name":"Chełmek Reymonta","platform":"1","zone":"Chełmek"},"geometry":{"type":"Point","coordinates":[19.26918,50.09739]}},
    {"type":"Feature","properties":{"stop_id":"0857","name":"Chełmek Kasprowicza","platform":"1","zone":"Chełmek"},"geometry":{"type":"Point","coordinates":[19.26609,50.09751]}},
    {"type":"Feature","properties":{"stop_id":"0858","name":"Chełmek Osiedle","platform":"1","zone":"Chełmek"},"geometry":{"type":"Point","coordinates":[19.26883,50.10117]}},
    {"type":"Feature","properties":{"stop_id":"0859","name":"Chełmek Pętla","platform":"0","zone":"Chełmek"},"geometry":{"type":"Point","coordinates":[19.26485,50.1041]}},
    {"type":"Feature","properties":{"stop_id":"0860","name":"Chełmek Osiedle","platform":"2","zone":"Chełmek"},"geometry":{"type":"Point","coordinates":[19.26871,50.10128]}},
    {"type":"Feature","properties":{"stop_id":"0861","name":"Chełmek Mieszka I","platform":"1","zone":"Chełmek"},"geometry":{"type":"Point","coordinates":[19.23149,50.0988]}},
    {"type":"Feature","properties":{"stop_id":"0862","name":"Chełmek Oświęcimska","platform":"1","zone":"Chełmek"},"geometry":{"type":"Point","coordinates":[19.23022,50.09575]}},
    {"type":"Feature","properties":{"stop_id":"0863","name":"Gorzów Granica","platform":"1","zone":"Chełmek"},"geometry":{"type":"Point","coordinates":[19.23106,50.08699]}},
    {"type":"Feature","properties":{"stop_id":"0864","name":"Gorzów Remiza","platform":"1","zone":"Chełmek"},"geometry":{"type":"Point","coordinates":[19.22743,50.08272]}},
    {"type":"Feature","properties":{"stop_id":"0865","name":"Gorzów Szkoła","platform":"1","zone":"Chełmek"},"geometry":{"type":"Point","coordinates":[19.22558,50.07444]}},
    {"type":"Feature","properties":{"stop_id":"0866","name":"Gorzów Szkolna","platform":"1","zone":"Chełmek"},"geometry":{"type":"Point","coordinates":[19.23372,50.07408]}},
    {"type":"Feature","properties":{"stop_id":"0867","name":"Bobrek Świnna","platform":"1","zone":"Chełmek"},"geometry":{"type":"Point","coordinates":[19.23842,50.06612]}},
    {"type":"Feature","properties":{"stop_id":"1281","name":"Chełmek Fredry","platform":"1","zone":"Chełmek"},"geometry":{"type":"Point","coordinates":[19.24226,50.10919]}},
    {"type":"Feature","properties":{"stop_id":"1282","name":"Chełmek Fredry","platform":"2","zone":"Chełmek"},"geometry":{"type":"Point","coordinates":[19.24217,50.10913]}},
    {"type":"Feature","properties":{"stop_id":"1501","name":"Bobrek Dom Ludowy","platform":"1","zone":"Chełmek"},"geometry":{"type":"Point","coordinates":[19.27235,50.05204]}},
    {"type":"Feature","properties":{"stop_id":"1502","name":"Bobrek Dom Ludowy","platform":"2","zone":"Chełmek"},"geometry":{"type":"Point","coordinates":[19.27199,50.05206]}},
    {"type":"Feature","properties":{"stop_id":"1503","name":"Bobrek Nadwiślańska","platform":"1","zone":"Chełmek"},"geometry":{"type":"Point","coordinates":[19.26394,50.05433]}},
    {"type":"Feature","properties":{"stop_id":"1504","name":"Bobrek Nadwiślańska","platform":"2","zone":"Chełmek"},"geometry":{"type":"Point","coordinates":[19.26411,50.05439]}},
    {"type":"Feature","properties":{"stop_id":"1531","name":"Bobrek Podkumorek","platform":"2","zone":"Chełmek"},"geometry":{"type":"Point","coordinates":[19.24843,50.07165]}},
    {"type":"Feature","properties":{"stop_id":"1532","name":"Bobrek Podkumorek","platform":"1","zone":"Chełmek"},"geometry":{"type":"Point","coordinates":[19.24949,50.07148]}},
    {"type":"Feature","properties":{"stop_id":"1533","name":"Bobrek Parkowa I","platform":"1","zone":"Chełmek"},"geometry":{"type":"Point","coordinates":[19.25085,50.06939]}},
    {"type":"Feature","properties":{"stop_id":"1534","name":"Bobrek Parkowa II","platform":"1","zone":"Chełmek"},"geometry":{"type":"Point","coordinates":[19.24963,50.06524]}},
    {"type":"Feature","properties":{"stop_id":"1535","name":"Bobrek Szkoła","platform":"2","zone":"Chełmek"},"geometry":{"type":"Point","coordinates":[19.25673,50.06008]}},
    {"type":"Feature","properties":{"stop_id":"1536","name":"Bobrek Szkoła","platform":"1","zone":"Chełmek"},"geometry":{"type":"Point","coordinates":[19.25684,50.05952]}},
    {"type":"Feature","properties":{"stop_id":"1537","name":"Bobrek Poczta","platform":"1","zone":"Chełmek"},"geometry":{"type":"Point","coordinates":[19.25801,50.0662]}},
    {"type":"Feature","properties":{"stop_id":"1538","name":"Bobrek Poczta","platform":"2","zone":"Chełmek"},"geometry":{"type":"Point","coordinates":[19.25792,50.06624]}},
    {"type":"Feature","properties":{"stop_id":"1539","name":"Bobrek Wyszogrodzkiego","platform":"1","zone":"Chełmek"},"geometry":{"type":"Point","coordinates":[19.25957,50.07132]}},
    {"type":"Feature","properties":{"stop_id":"1540","name":"Bobrek Wyszogrodzkiego","platform":"2","zone":"Chełmek"},"geometry":{"type":"Point","coordinates":[19.25965,50.07125]}},
    {"type":"Feature","properties":{"stop_id":"2624","name":"Bobrek Długa","platform":"1","zone":"Chełmek"},"geometry":{"type":"Point","coordinates":[19.25737,50.06435]}},
    {"type":"Feature","properties":{"stop_id":"2878","name":"Chełmek Chrobrego Szkoła","platform":"2","zone":"Chełmek"},"geometry":{"type":"Point","coordinates":[19.23788,50.09768]}}
  ]
}
