{
  "type":"FeatureCollection",
  "features":[
    {"type":"Feature","properties":{"stop_id":"0092","name":"Chrzanów Valeo","platform":"2","zone":"Chrzanów"},"geometry":{"type":"Point","coordinates":[19.4336,50.1442]}},
    {"type":"Feature","properties":{"stop_id":"0093","name":"Chrzanów Szpital","platform":"2","zone":"Chrzanów"},"geometry":{"type":"Point","coordinates":[19.42721,50.13788]}},
    {"type":"Feature","properties":{"stop_id":"0094","name":"Chrzanów Szpitalna","platform":"1","zone":"Chrzanów"},"geometry":{"type":"Point","coordinates":[19.42238,50.13634]}},
    {"type":"Feature","properties":{"stop_id":"0095","name":"Chrzanów Dworzec Autobusowy","platform":"3","zone":"Chrzanów"},"geometry":{"type":"Point","coordinates":[19.41156,50.14269]}},
    {"type":"Feature","properties":{"stop_id":"0096","name":"Chrzanów Plac Tysiąclecia","platform":"3","zone":"Chrzanów"},"geometry":{"type":"Point","coordinates":[19.40523,50.14399]}},
    {"type":"Feature","properties":{"stop_id":"0097","name":"Chrzanów Park","platform":"1","zone":"Chrzanów"},"geometry":{"type":"Point","coordinates":[19.40084,50.14433]}},
    {"type":"Feature","properties":{"stop_id":"0098","name":"Chrzanów Kąty Bloki","platform":"1","zone":"Chrzanów"},"geometry":{"type":"Point","coordinates":[19.39008,50.14542]}},
    {"type":"Feature","properties":{"stop_id":"0099","name":"Chrzanów Kąty Kościół","platform":"1","zone":"Chrzanów"},"geometry":{"type":"Point","coordinates":[19.37892,50.14825]}},
    {"type":"Feature","properties":{"stop_id":"0100","name":"Chrzanów Kąty Osiedle Malarzy","platform":"1","zone":"Chrzanów"},"geometry":{"type":"Point","coordinates":[19.36843,50.14952]}},
    {"type":"Feature","properties":{"stop_id":"0101","name":"Chrzanów Kroczymiech","platform":"1","zone":"Chrzanów"},"geometry":{"type":"Point","coordinates":[19.36936,50.12849]}},
    {"type":"Feature","properties":{"stop_id":"0102","name":"Chrzanów Fadom","platform":"2","zone":"Chrzanów"},"geometry":{"type":"Point","coordinates":[19.3675,50.12616]}},
    {"type":"Feature","properties":{"stop_id":"0109","name":"Chrzanów Fadom","platform":"1","zone":"Chrzanów"},"geometry":{"type":"Point","coordinates":[19.36688,50.12501]}},
    {"type":"Feature","properties":{"stop_id":"0110","name":"Chrzanów Kroczymiech","platform":"2","zone":"Chrzanów"},"geometry":{"type":"Point","coordinates":[19.37012,50.12902]}},
    {"type":"Feature","properties":{"stop_id":"0111","name":"Chrzanów Kąty Osiedle Malarzy","platform":"2","zone":"Chrzanów"},"geometry":{"type":"Point","coordinates":[19.36845,50.1494]}},
    {"type":"Feature","properties":{"stop_id":"0112","name":"Chrzanów Kąty Kościół","platform":"2","zone":"Chrzanów"},"geometry":{"type":"Point","coordinates":[19.3788,50.14813]}},
    {"type":"Feature","properties":{"stop_id":"0113","name":"Chrzanów Kąty Bloki","platform":"2","zone":"Chrzanów"},"geometry":{"type":"Point","coordinates":[19.38927,50.14532]}},
    {"type":"Feature","properties":{"stop_id":"0114","name":"Chrzanów Księdza Skorupki","platform":"0","zone":"Chrzanów"},"geometry":{"type":"Point","coordinates":[19.4003,50.14732]}},
    {"type":"Feature","properties":{"stop_id":"0115","name":"Chrzanów Plac Tysiąclecia","platform":"2","zone":"Chrzanów"},"geometry":{"type":"Point","coordinates":[19.405,50.14408]}},
    {"type":"Feature","properties":{"stop_id":"0116","name":"Chrzanów Dworzec Autobusowy","platform":"1","zone":"Chrzanów"},"geometry":{"type":"Point","coordinates":[19.41149,50.14278]}},
    {"type":"Feature","properties":{"stop_id":"0117","name":"Chrzanów Szpitalna","platform":"3","zone":"Chrzanów"},"geometry":{"type":"Point","coordinates":[19.42365,50.13607]}},
    {"type":"Feature","properties":{"stop_id":"0118","name":"Chrzanów Szpital","platform":"1","zone":"Chrzanów"},"geometry":{"type":"Point","coordinates":[19.42733,50.13779]}},
    {"type":"Feature","properties":{"stop_id":"0119","name":"Chrzanów Valeo","platform":"1","zone":"Chrzanów"},"geometry":{"type":"Point","coordinates":[19.43508,50.14508]}},
    {"type":"Feature","properties":{"stop_id":"0330","name":"Chrzanów Osiedle Kopanina","platform":"1","zone":"Chrzanów"},"geometry":{"type":"Point","coordinates":[19.38163,50.13351]}},
    {"type":"Feature","properties":{"stop_id":"0331","name":"Chrzanów PZGS","platform":"1","zone":"Chrzanów"},"geometry":{"type":"Point","coordinates":[19.39062,50.13713]}},
    {"type":"Feature","properties":{"stop_id":"0332","name":"Chrzanów Sienna","platform":"1","zone":"Chrzanów"},"geometry":{"type":"Point","coordinates":[19.4001,50.13637]}},
    {"type":"Feature","properties":{"stop_id":"0333","name":"Chrzanów Podwale","platform":"1","zone":"Chrzanów"},"geometry":{"type":"Point","coordinates":[19.40723,50.13865]}},
    {"type":"Feature","properties":{"stop_id":"0334","name":"Chrzanów Dworzec Autobusowy","platform":"4","zone":"Chrzanów"},"geometry":{"type":"Point","coordinates":[19.4116,50.14263]}},
    {"type":"Feature","properties":{"stop_id":"0335","name":"Chrzanów PZGS","platform":"2","zone":"Chrzanów"},"geometry":{"type":"Point","coordinates":[19.38983,50.13703]}},
    {"type":"Feature","properties":{"stop_id":"0336","name":"Chrzanów Osiedle Kopanina","platform":"2","zone":"Chrzanów"},"geometry":{"type":"Point","coordinates":[19.38051,50.13311]}},
    {"type":"Feature","properties":{"stop_id":"0352","name":"Chrzanów ZUS","platform":"1","zone":"Chrzanów"},"geometry":{"type":"Point","coordinates":[19.39767,50.14226]}},
    {"type":"Feature","properties":{"stop_id":"0397","name":"Chrzanów Trzebińska","platform":"1","zone":"Chrzanów"},"geometry":{"type":"Point","coordinates":[19.41441,50.14344]}},
    {"type":"Feature","properties":{"stop_id":"0398","name":"Chrzanów Trzebińska","platform":"2","zone":"Chrzanów"},"geometry":{"type":"Point","coordinates":[19.41451,50.14328]}},
    {"type":"Feature","properties":{"stop_id":"0567","name":"Chrzanów Głowackiego","platform":"1","zone":"Chrzanów"},"geometry":{"type":"Point","coordinates":[19.40707,50.13735]}},
    {"type":"Feature","properties":{"stop_id":"0568","name":"Chrzanów Pogorska Szkoła","platform":"2","zone":"Chrzanów"},"geometry":{"type":"Point","coordinates":[19.40822,50.13187]}},
    {"type":"Feature","properties":{"stop_id":"0569","name":"Chrzanów Pogorska Przychodnia","platform":"1","zone":"Chrzanów"},"geometry":{"type":"Point","coordinates":[19.40925,50.12942]}},
    {"type":"Feature","properties":{"stop_id":"0570","name":"Chrzanów Pogorska Kościół","platform":"2","zone":"Chrzanów"},"geometry":{"type":"Point","coordinates":[19.41028,50.12452]}},
    {"type":"Feature","properties":{"stop_id":"0571","name":"Chrzanów Ciepłownia","platform":"1","zone":"Chrzanów"},"geometry":{"type":"Point","coordinates":[19.41044,50.12195]}},
    {"type":"Feature","properties":{"stop_id":"0572","name":"Chrzanów Stella","platform":"1","zone":"Chrzanów"},"geometry":{"type":"Point","coordinates":[19.41248,50.11622]}},
    {"type":"Feature","properties":{"stop_id":"0573","name":"Pogorzyce PKP","platform":"1","zone":"Chrzanów"},"geometry":{"type":"Point","coordinates":[19.41358,50.11238]}},
    {"type":"Feature","properties":{"stop_id":"0574","name":"Pogorzyce Szkoła","platform":"1","zone":"Chrzanów"},"geometry":{"type":"Point","coordinates":[19.41543,50.10715]}},
    {"type":"Feature","properties":{"stop_id":"0575","name":"Pogorzyce Kościół","platform":"2","zone":"Chrzanów"},"geometry":{"type":"Point","coordinates":[19.42066,50.10188]}},
    {"type":"Feature","properties":{"stop_id":"0576","name":"Pogorzyce Dwór","platform":"1","zone":"Chrzanów"},"geometry":{"type":"Point","coordinates":[19.42616,50.09898]}},
    {"type":"Feature","properties":{"stop_id":"0577","name":"Pogorzyce Starzyny","platform":"2","zone":"Chrzanów"},"geometry":{"type":"Point","coordinates":[19.43167,50.0979]}},
    {"type":"Feature","properties":{"stop_id":"0578","name":"Płaza Mazerzyn","platform":"2","zone":"Chrzanów"},"geometry":{"type":"Point","coordinates":[19.44305,50.09882]}},
    {"type":"Feature","properties":{"stop_id":"0579","name":"Płaza Syberia","platform":"1","zone":"Chrzanów"},"geometry":{"type":"Point","coordinates":[19.45435,50.09767]}},
    {"type":"Feature","properties":{"stop_id":"0580","name":"Płaza Hetmańska","platform":"2","zone":"Chrzanów"},"geometry":{"type":"Point","coordinates":[19.46063,50.09955]}},
    {"type":"Feature","properties":{"stop_id":"0581","name":"Płaza Górna Kościół","platform":"1","zone":"Chrzanów"},"geometry":{"type":"Point","coordinates":[19.46398,50.09872]}},
    {"type":"Feature","properties":{"stop_id":"0582","name":"Płaza Role","platform":"1","zone":"Chrzanów"},"geometry":{"type":"Point","coordinates":[19.4615,50.09506]}},
    {"type":"Feature","properties":{"stop_id":"0583","name":"Płaza Dolna II","platform":"1","zone":"Chrzanów"},"geometry":{"type":"Point","coordinates":[19.45424,50.08526]}},
    {"type":"Feature","properties":{"stop_id":"0584","name":"Płaza Dolna I","platform":"2","zone":"Chrzanów"},"geometry":{"type":"Point","coordinates":[19.44266,50.08245]}},
    {"type":"Feature","properties":{"stop_id":"0599","name":"Płaza Dolna I","platform":"1","zone":"Chrzanów"},"geometry":{"type":"Point","coordinates":[19.44129,50.08195]}},
    {"type":"Feature","properties":{"stop_id":"0600","name":"Płaza Dolna II","platform":"2","zone":"Chrzanów"},"geometry":{"type":"Point","coordinates":[19.45505,50.08557]}},
    {"type":"Feature","properties":{"stop_id":"0601","name":"Płaza Role","platform":"2","zone":"Chrzanów"},"geometry":{"type":"Point","coordinates":[19.46114,50.09346]}},
    {"type":"Feature","properties":{"stop_id":"0602","name":"Płaza Górna Kościół","platform":"2","zone":"Chrzanów"},"geometry":{"type":"Point","coordinates":[19.46418,50.09865]}},
    {"type":"Feature","properties":{"stop_id":"0603","name":"Płaza Hetmańska","platform":"1","zone":"Chrzanów"},"geometry":{"type":"Point","coordinates":[19.4609,50.10001]}},
    {"type":"Feature","properties":{"stop_id":"0604","name":"Płaza Syberia","platform":"2","zone":"Chrzanów"},"geometry":{"type":"Point","coordinates":[19.45378,50.09784]}},
    {"type":"Feature","properties":{"stop_id":"0605","name":"Płaza Mazerzyn","platform":"1","zone":"Chrzanów"},"geometry":{"type":"Point","coordinates":[19.4432,50.09902]}},
    {"type":"Feature","properties":{"stop_id":"0606","name":"Pogorzyce Starzyny","platform":"1","zone":"Chrzanów"},"geometry":{"type":"Point","coordinates":[19.43099,50.09823]}},
    {"type":"Feature","properties":{"stop_id":"0607","name":"Pogorzyce Dwór","platform":"2","zone":"Chrzanów"},"geometry":{"type":"Point","coordinates":[19.42593,50.09926]}},
    {"type":"Feature","properties":{"stop_id":"0608","name":"Pogorzyce Kościół","platform":"1","zone":"Chrzanów"},"geometry":{"type":"Point","coordinates":[19.42122,50.10193]}},
    {"type":"Feature","properties":{"stop_id":"0609","name":"Pogorzyce Szkoła","platform":"2","zone":"Chrzanów"},"geometry":{"type":"Point","coordinates":[19.41572,50.10705]}},
    {"type":"Feature","properties":{"stop_id":"0610","name":"Pogorzyce PKP","platform":"2","zone":"Chrzanów"},"geometry":{"type":"Point","coordinates":[19.41404,50.11177]}},
    {"type":"Feature","properties":{"stop_id":"0611","name":"Chrzanów Stella","platform":"2","zone":"Chrzanów"},"geometry":{"type":"Point","coordinates":[19.41264,50.11622]}},
    {"type":"Feature","properties":{"stop_id":"0612","name":"Chrzanów Ciepłownia","platform":"2","zone":"Chrzanów"},"geometry":{"type":"Point","coordinates":[19.41049,50.12248]}},
    {"type":"Feature","properties":{"stop_id":"0613","name":"Chrzanów Pogorska Kościół","platform":"1","zone":"Chrzanów"},"geometry":{"type":"Point","coordinates":[19.41063,50.12517]}},
    {"type":"Feature","properties":{"stop_id":"0614","name":"Chrzanów Pogorska Przychodnia","platform":"2","zone":"Chrzanów"},"geometry":{"type":"Point","coordinates":[19.40976,50.12898]}},
    {"type":"Feature","properties":{"stop_id":"0615","name":"Chrzanów Pogorska Szkoła","platform":"1","zone":"Chrzanów"},"geometry":{"type":"Point","coordinates":[19.40841,50.13202]}},
    {"type":"Feature","properties":{"stop_id":"0681","name":"Chrzanów Dworzec PKP","platform":"2","zone":"Chrzanów"},"geometry":{"type":"Point","coordinates":[19.39874,50.13326]}},
    {"type":"Feature","properties":{"stop_id":"0682","name":"Chrzanów Fablok","platform":"0","zone":"Chrzanów"},"geometry":{"type":"Point","coordinates":[19.39102,50.12785]}},
    {"type":"Feature","properties":{"stop_id":"0683","name":"Chrzanów Dworzec PKP","platform":"1","zone":"Chrzanów"},"geometry":{"type":"Point","coordinates":[19.39911,50.13336]}},
    {"type":"Feature","properties":{"stop_id":"0684","name":"Chrzanów Dworzec Autobusowy","platform":"2","zone":"Chrzanów"},"geometry":{"type":"Point","coordinates":[19.41152,50.14273]}},
    {"type":"Feature","properties":{"stop_id":"0989","name":"Luszowice Góry Luszowskie","platform":"1","zone":"Chrzanów"},"geometry":{"type":"Point","coordinates":[19.41492,50.18346]}},
    {"type":"Feature","properties":{"stop_id":"1058","name":"Chrzanów Szpitalna","platform":"2","zone":"Chrzanów"},"geometry":{"type":"Point","coordinates":[19.42287,50.13541]}},
    {"type":"Feature","properties":{"stop_id":"1059","name":"Chrzanów Plac Tysiąclecia","platform":"1","zone":"Chrzanów"},"geometry":{"type":"Point","coordinates":[19.40479,50.14417]}},
    {"type":"Feature","properties":{"stop_id":"1060","name":"Chrzanów Aleja Henryka","platform":"1","zone":"Chrzanów"},"geometry":{"type":"Point","coordinates":[19.39912,50.13615]}},
    {"type":"Feature","properties":{"stop_id":"1061","name":"Chrzanów Wodzińska","platform":"1","zone":"Chrzanów"},"geometry":{"type":"Point","coordinates":[19.40607,50.14807]}},
    {"type":"Feature","properties":{"stop_id":"1062","name":"Chrzanów Wodzińska","platform":"2","zone":"Chrzanów"},"geometry":{"type":"Point","coordinates":[19.40612,50.14791]}},
    {"type":"Feature","properties":{"stop_id":"1063","name":"Chrzanów Powstańców Styczniowych","platform":"2","zone":"Chrzanów"},"geometry":{"type":"Point","coordinates":[19.38121,50.13205]}},
    {"type":"Feature","properties":{"stop_id":"1064","name":"Chrzanów Powstańców Styczniowych","platform":"1","zone":"Chrzanów"},"geometry":{"type":"Point","coordinates":[19.38102,50.13202]}},
    {"type":"Feature","properties":{"stop_id":"1065","name":"Chrzanów Oczyszczalnia","platform":"1","zone":"Chrzanów"},"geometry":{"type":"Point","coordinates":[19.37223,50.1134]}},
    {"type":"Feature","properties":{"stop_id":"1066","name":"Chrzanów Chłodnia","platform":"1","zone":"Chrzanów"},"geometry":{"type":"Point","coordinates":[19.37795,50.1195]}},
    {"type":"Feature","properties":{"stop_id":"1067","name":"Chrzanów Przetwórnia","platform":"1","zone":"Chrzanów"},"geometry":{"type":"Point","coordinates":[19.3827,50.12321]}},
    {"type":"Feature","properties":{"stop_id":"1068","name":"Chrzanów Zakłady Mleczarskie","platform":"1","zone":"Chrzanów"},"geometry":{"type":"Point","coordinates":[19.38086,50.12535]}},
    {"type":"Feature","properties":{"stop_id":"1069","name":"Chrzanów Zakłady Mleczarskie","platform":"2","zone":"Chrzanów"},"geometry":{"type":"Point","coordinates":[19.38066,50.12614]}},
    {"type":"Feature","properties":{"stop_id":"1070","name":"Chrzanów Przetwórnia","platform":"2","zone":"Chrzanów"},"geometry":{"type":"Point","coordinates":[19.38204,50.1227]}},
    {"type":"Feature","properties":{"stop_id":"1071","name":"Chrzanów Chłodnia","platform":"2","zone":"Chrzanów"},"geometry":{"type":"Point","coordinates":[19.37762,50.1195]}},
    {"type":"Feature","properties":{"stop_id":"1072","name":"Chrzanów Oczyszczalnia","platform":"2","zone":"Chrzanów"},"geometry":{"type":"Point","coordinates":[19.37269,50.11376]}},
    {"type":"Feature","properties":{"stop_id":"1073","name":"Chrzanów Stara Huta","platform":"1","zone":"Chrzanów"},"geometry":{"type":"Point","coordinates":[19.39178,50.13297]}},
    {"type":"Feature","properties":{"stop_id":"1074","name":"Chrzanów Stara Huta","platform":"2","zone":"Chrzanów"},"geometry":{"type":"Point","coordinates":[19.39207,50.13292]}},
    {"type":"Feature","properties":{"stop_id":"1075","name":"Chrzanów Osiedle Robotnicze","platform":"1","zone":"Chrzanów"},"geometry":{"type":"Point","coordinates":[19.39545,50.13381]}},
    {"type":"Feature","properties":{"stop_id":"1076","name":"Chrzanów Osiedle Robotnicze","platform":"2","zone":"Chrzanów"},"geometry":{"type":"Point","coordinates":[19.39619,50.13387]}},
    {"type":"Feature","properties":{"stop_id":"1077","name":"Chrzanów Kolejowa","platform":"2","zone":"Chrzanów"},"geometry":{"type":"Point","coordinates":[19.40058,50.13329]}},
    {"type":"Feature","properties":{"stop_id":"1078","name":"Chrzanów Kolejowa","platform":"1","zone":"Chrzanów"},"geometry":{"type":"Point","coordinates":[19.40103,50.1337]}},
    {"type":"Feature","properties":{"stop_id":"1079","name":"Chrzanów Osiedle Młodości Witosa","platform":"1","zone":"Chrzanów"},"geometry":{"type":"Point","coordinates":[19.4025,50.12708]}},
    {"type":"Feature","properties":{"stop_id":"1080","name":"Chrzanów Osiedle Młodości Szarych Szeregów","platform":"1","zone":"Chrzanów"},"geometry":{"type":"Point","coordinates":[19.40811,50.12625]}},
    {"type":"Feature","properties":{"stop_id":"1081","name":"Chrzanów Osiedle Młodości Szarych Szeregów","platform":"2","zone":"Chrzanów"},"geometry":{"type":"Point","coordinates":[19.40844,50.12626]}},
    {"type":"Feature","properties":{"stop_id":"1082","name":"Chrzanów Osiedle Młodości Witosa","platform":"2","zone":"Chrzanów"},"geometry":{"type":"Point","coordinates":[19.403,50.12654]}},
    {"type":"Feature","properties":{"stop_id":"1083","name":"Chrzanów Stella Pętla","platform":"0","zone":"Chrzanów"},"geometry":{"type":"Point","coordinates":[19.40988,50.11593]}},
    {"type":"Feature","properties":{"stop_id":"1084","name":"Płaza Cmentarz","platform":"3","zone":"Chrzanów"},"geometry":{"type":"Point","coordinates":[19.46211,50.10034]}},
    {"type":"Feature","properties":{"stop_id":"1085","name":"Płaza Cmentarz","platform":"1","zone":"Chrzanów"},"geometry":{"type":"Point","coordinates":[19.46025,50.1005]}},
    {"type":"Feature","properties":{"stop_id":"1086","name":"Płaza Cmentarz","platform":"2","zone":"Chrzanów"},"geometry":{"type":"Point","coordinates":[19.46073,50.10023]}},
    {"type":"Feature","properties":{"stop_id":"1113","name":"Chrzanów Borowiec III","platform":"1","zone":"Chrzanów"},"geometry":{"type":"Point","coordinates":[19.37732,50.10095]}},
    {"type":"Feature","properties":{"stop_id":"1114","name":"Chrzanów Borowiec III","platform":"2","zone":"Chrzanów"},"geometry":{"type":"Point","coordinates":[19.37697,50.10046]}},
    {"type":"Feature","properties":{"stop_id":"1115","name":"Chrzanów Borowiec II","platform":"2","zone":"Chrzanów"},"geometry":{"type":"Point","coordinates":[19.37912,50.10418]}},
    {"type":"Feature","properties":{"stop_id":"1116","name":"Chrzanów Borowiec II","platform":"1","zone":"Chrzanów"},"geometry":{"type":"Point","coordinates":[19.37881,50.10463]}},
    {"type":"Feature","properties":{"stop_id":"1117","name":"Chrzanów Borowiec I","platform":"2","zone":"Chrzanów"},"geometry":{"type":"Point","coordinates":[19.38549,50.11505]}},
    {"type":"Feature","properties":{"stop_id":"1118","name":"Chrzanów Borowiec I","platform":"1","zone":"Chrzanów"},"geometry":{"type":"Point","coordinates":[19.38505,50.11501]}},
    {"type":"Feature","properties":{"stop_id":"1119","name":"Chrzanów Rospontowa II","platform":"1","zone":"Chrzanów"},"geometry":{"type":"Point","coordinates":[19.39138,50.12061]}},
    {"type":"Feature","properties":{"stop_id":"1120","name":"Chrzanów Rospontowa II","platform":"2","zone":"Chrzanów"},"geometry":{"type":"Point","coordinates":[19.39167,50.12013]}},
    {"type":"Feature","properties":{"stop_id":"1121","name":"Chrzanów Rospontowa I","platform":"1","zone":"Chrzanów"},"geometry":{"type":"Point","coordinates":[19.39751,50.12535]}},
    {"type":"Feature","properties":{"stop_id":"1122","name":"Chrzanów Rospontowa I","platform":"2","zone":"Chrzanów"},"geometry":{"type":"Point","coordinates":[19.39728,50.12476]}},
    {"type":"Feature","properties":{"stop_id":"1141","name":"Chrzanów Chechło Kąpielisko","platform":"1","zone":"Chrzanów"},"geometry":{"type":"Point","coordinates":[19.44308,50.13549]}},
    {"type":"Feature","properties":{"stop_id":"1142","name":"Chrzanów Chechło Kąpielisko","platform":"2","zone":"Chrzanów"},"geometry":{"type":"Point","coordinates":[19.4436,50.13517]}},
    {"type":"Feature","properties":{"stop_id":"1147","name":"Chrzanów Działkowa","platform":"1","zone":"Chrzanów"},"geometry":{"type":"Point","coordinates":[19.40476,50.1524]}},
    {"type":"Feature","properties":{"stop_id":"1148","name":"Chrzanów Działkowa","platform":"2","zone":"Chrzanów"},"geometry":{"type":"Point","coordinates":[19.40453,50.15249]}},
    {"type":"Feature","properties":{"stop_id":"1149","name":"Chrzanów Piaski","platform":"1","zone":"Chrzanów"},"geometry":{"type":"Point","coordinates":[19.40522,50.15692]}},
    {"type":"Feature","properties":{"stop_id":"1150","name":"Luszowice Piaski","platform":"1","zone":"Chrzanów"},"geometry":{"type":"Point","coordinates":[19.40429,50.16634]}},
    {"type":"Feature","properties":{"stop_id":"1151","name":"Luszowice","platform":"1","zone":"Chrzanów"},"geometry":{"type":"Point","coordinates":[19.40311,50.17351]}},
    {"type":"Feature","properties":{"stop_id":"1152","name":"Luszowice II","platform":"1","zone":"Chrzanów"},"geometry":{"type":"Point","coordinates":[19.4092,50.17841]}},
    {"type":"Feature","properties":{"stop_id":"1153","name":"Luszowice II","platform":"2","zone":"Chrzanów"},"geometry":{"type":"Point","coordinates":[19.40917,50.17869]}},
    {"type":"Feature","properties":{"stop_id":"1154","name":"Luszowice","platform":"2","zone":"Chrzanów"},"geometry":{"type":"Point","coordinates":[19.40284,50.1729]}},
    {"type":"Feature","properties":{"stop_id":"1155","name":"Luszowice Piaski","platform":"2","zone":"Chrzanów"},"geometry":{"type":"Point","coordinates":[19.40402,50.16631]}},
    {"type":"Feature","properties":{"stop_id":"1156","name":"Chrzanów Piaski","platform":"2","zone":"Chrzanów"},"geometry":{"type":"Point","coordinates":[19.40505,50.15722]}},
    {"type":"Feature","properties":{"stop_id":"1157","name":"Chrzanów Osiedle Młodości Armii Krajowej","platform":"1","zone":"Chrzanów"},"geometry":{"type":"Point","coordinates":[19.41213,50.13305]}},
    {"type":"Feature","properties":{"stop_id":"1158","name":"Chrzanów Kościelec Kościół","platform":"0","zone":"Chrzanów"},"geometry":{"type":"Point","coordinates":[19.4163,50.13422]}},
    {"type":"Feature","properties":{"stop_id":"1159","name":"Chrzanów Kasztanowa","platform":"0","zone":"Chrzanów"},"geometry":{"type":"Point","coordinates":[19.42431,50.13056]}},
    {"type":"Feature","properties":{"stop_id":"1160","name":"Chrzanów Sendlerowej","platform":"0","zone":"Chrzanów"},"geometry":{"type":"Point","coordinates":[19.42529,50.12768]}},
    {"type":"Feature","properties":{"stop_id":"1161","name":"Chrzanów Kościelec Staw","platform":"1","zone":"Chrzanów"},"geometry":{"type":"Point","coordinates":[19.425,50.13263]}},
    {"type":"Feature","properties":{"stop_id":"1162","name":"Chrzanów Kościelec","platform":"1","zone":"Chrzanów"},"geometry":{"type":"Point","coordinates":[19.42933,50.12804]}},
    {"type":"Feature","properties":{"stop_id":"1163","name":"Chrzanów Kościelec","platform":"2","zone":"Chrzanów"},"geometry":{"type":"Point","coordinates":[19.43076,50.1269]}},
    {"type":"Feature","properties":{"stop_id":"1164","name":"Chrzanów Kościelec Staw","platform":"2","zone":"Chrzanów"},"geometry":{"type":"Point","coordinates":[19.42525,50.13282]}},
    {"type":"Feature","properties":{"stop_id":"1214","name":"Płaza Wieś","platform":"2","zone":"Chrzanów"},"geometry":{"type":"Point","coordinates":[19.47255,50.10497]}},
    {"type":"Feature","properties":{"stop_id":"1217","name":"Chrzanów Kościelec Las","platform":"1","zone":"Chrzanów"},"geometry":{"type":"Point","coordinates":[19.4333,50.12422]}},
    {"type":"Feature","properties":{"stop_id":"1218","name":"Chrzanów Kościelec Las","platform":"2","zone":"Chrzanów"},"geometry":{"type":"Point","coordinates":[19.43304,50.12475]}},
    {"type":"Feature","properties":{"stop_id":"1219","name":"Płaza Wapiennik II","platform":"1","zone":"Chrzanów"},"geometry":{"type":"Point","coordinates":[19.44274,50.11286]}},
    {"type":"Feature","properties":{"stop_id":"1220","name":"Płaza Wapiennik I","platform":"1","zone":"Chrzanów"},"geometry":{"type":"Point","coordinates":[19.44462,50.10694]}},
    {"type":"Feature","properties":{"stop_id":"1221","name":"Płaza Wapiennik I","platform":"2","zone":"Chrzanów"},"geometry":{"type":"Point","coordinates":[19.44479,50.10727]}},
    {"type":"Feature","properties":{"stop_id":"1222","name":"Płaza Działki","platform":"1","zone":"Chrzanów"},"geometry":{"type":"Point","coordinates":[19.45099,50.10355]}},
    {"type":"Feature","properties":{"stop_id":"1223","name":"Płaza Działki","platform":"2","zone":"Chrzanów"},"geometry":{"type":"Point","coordinates":[19.45206,50.10308]}},
    {"type":"Feature","properties":{"stop_id":"1239","name":"Okradziejówka Pętla","platform":"0","zone":"Chrzanów"},"geometry":{"type":"Point","coordinates":[19.37814,50.18384]}},
    {"type":"Feature","properties":{"stop_id":"1240","name":"Okradziejówka","platform":"1","zone":"Chrzanów"},"geometry":{"type":"Point","coordinates":[19.38083,50.17863]}},
    {"type":"Feature","properties":{"stop_id":"1241","name":"Balin Pańska Pawilon","platform":"1","zone":"Chrzanów"},"geometry":{"type":"Point","coordinates":[19.38225,50.16768]}},
    {"type":"Feature","properties":{"stop_id":"1242","name":"Balin Pańska Pawilon","platform":"2","zone":"Chrzanów"},"geometry":{"type":"Point","coordinates":[19.38217,50.16772]}},
    {"type":"Feature","properties":{"stop_id":"1243","name":"Okradziejówka","platform":"2","zone":"Chrzanów"},"geometry":{"type":"Point","coordinates":[19.3812,50.17806]}},
    {"type":"Feature","properties":{"stop_id":"1244","name":"Balin Jaworznicka Pawilon","platform":"1","zone":"Chrzanów"},"geometry":{"type":"Point","coordinates":[19.38233,50.16712]}},
    {"type":"Feature","properties":{"stop_id":"1245","name":"Balin Jaworznicka Pawilon","platform":"2","zone":"Chrzanów"},"geometry":{"type":"Point","coordinates":[19.38271,50.16718]}},
    {"type":"Feature","properties":{"stop_id":"1246","name":"Balin Szkoła","platform":"1","zone":"Chrzanów"},"geometry":{"type":"Point","coordinates":[19.37383,50.17135]}},
    {"type":"Feature","properties":{"stop_id":"1247","name":"Balin Szkoła","platform":"2","zone":"Chrzanów"},"geometry":{"type":"Point","coordinates":[19.37367,50.17155]}},
    {"type":"Feature","properties":{"stop_id":"1248","name":"Balin Wolności","platform":"0","zone":"Chrzanów"},"geometry":{"type":"Point","coordinates":[19.37172,50.17074]}},
    {"type":"Feature","properties":{"stop_id":"1249","name":"Balin Graniczny","platform":"2","zone":"Chrzanów"},"geometry":{"type":"Point","coordinates":[19.36697,50.17282]}},
    {"type":"Feature","properties":{"stop_id":"1250","name":"Balin Straż Pożarna","platform":"2","zone":"Chrzanów"},"geometry":{"type":"Point","coordinates":[19.37318,50.1695]}},
    {"type":"Feature","properties":{"stop_id":"1251","name":"Balin Przychodnia","platform":"2","zone":"Chrzanów"},"geometry":{"type":"Point","coordinates":[19.38105,50.16376]}},
    {"type":"Feature","properties":{"stop_id":"1252","name":"Balin Łąkowa","platform":"2","zone":"Chrzanów"},"geometry":{"type":"Point","coordinates":[19.38934,50.16295]}},
    {"type":"Feature","properties":{"stop_id":"1253","name":"Balin Kościół","platform":"2","zone":"Chrzanów"},"geometry":{"type":"Point","coordinates":[19.39068,50.1652]}},
    {"type":"Feature","properties":{"stop_id":"1254","name":"Balin Warpie","platform":"2","zone":"Chrzanów"},"geometry":{"type":"Point","coordinates":[19.39221,50.15902]}},
    {"type":"Feature","properties":{"stop_id":"1255","name":"Balin Działki","platform":"2","zone":"Chrzanów"},"geometry":{"type":"Point","coordinates":[19.3948,50.15586]}},
    {"type":"Feature","properties":{"stop_id":"1256","name":"Balin Działki","platform":"1","zone":"Chrzanów"},"geometry":{"type":"Point","coordinates":[19.39457,50.15592]}},
    {"type":"Feature","properties":{"stop_id":"1257","name":"Balin Warpie","platform":"1","zone":"Chrzanów"},"geometry":{"type":"Point","coordinates":[19.39209,50.15954]}},
    {"type":"Feature","properties":{"stop_id":"1258","name":"Balin Kościół","platform":"1","zone":"Chrzanów"},"geometry":{"type":"Point","coordinates":[19.39045,50.1652]}},
    {"type":"Feature","properties":{"stop_id":"1259","name":"Balin Łąkowa","platform":"1","zone":"Chrzanów"},"geometry":{"type":"Point","coordinates":[19.38947,50.16304]}},
    {"type":"Feature","properties":{"stop_id":"1260","name":"Balin Przychodnia","platform":"1","zone":"Chrzanów"},"geometry":{"type":"Point","coordinates":[19.38113,50.16384]}},
    {"type":"Feature","properties":{"stop_id":"1261","name":"Balin Straż Pożarna","platform":"1","zone":"Chrzanów"},"geometry":{"type":"Point","coordinates":[19.37318,50.1695]}},
    {"type":"Feature","properties":{"stop_id":"1262","name":"Balin Graniczny","platform":"1","zone":"Chrzanów"},"geometry":{"type":"Point","coordinates":[19.36709,50.17288]}},
    {"type":"Feature","properties":{"stop_id":"1509","name":"Płaza Wieś","platform":"1","zone":"Chrzanów"},"geometry":{"type":"Point","coordinates":[19.47303,50.10522]}},
    {"type":"Feature","properties":{"stop_id":"1520","name":"Chrzanów Kąty Autostrada","platform":"1","zone":"Chrzanów"},"geometry":{"type":"Point","coordinates":[19.35034,50.15049]}},
    {"type":"Feature","properties":{"stop_id":"1521","name":"Chrzanów Kąty Autostrada","platform":"2","zone":"Chrzanów"},"geometry":{"type":"Point","coordinates":[19.35028,50.15038]}},
    {"type":"Feature","properties":{"stop_id":"1524","name":"Płaza Wapiennik II","platform":"2","zone":"Chrzanów"},"geometry":{"type":"Point","coordinates":[19.44244,50.11282]}}
  ]
}
