{
  "type":"FeatureCollection",
  "features":[
    {"type":"Feature","properties":{"stop_id":"0259","name":"Porąbka Parcela","platform":"1","zone":"Trzyciąż"},"geometry":{"type":"Point","coordinates":[19.81703,50.33909]}},
    {"type":"Feature","properties":{"stop_id":"0260","name":"Porąbka Stara Wieś","platform":"2","zone":"Trzyciąż"},"geometry":{"type":"Point","coordinates":[19.81015,50.33533]}},
    {"type":"Feature","properties":{"stop_id":"0261","name":"Porąbka Studnia","platform":"1","zone":"Trzyciąż"},"geometry":{"type":"Point","coordinates":[19.80631,50.33399]}},
    {"type":"Feature","properties":{"stop_id":"0262","name":"Porąbka","platform":"2","zone":"Trzyciąż"},"geometry":{"type":"Point","coordinates":[19.80333,50.32996]}},
    {"type":"Feature","properties":{"stop_id":"0263","name":"Trzyciąż Skrzyżowanie","platform":"3","zone":"Trzyciąż"},"geometry":{"type":"Point","coordinates":[19.76672,50.30972]}},
    {"type":"Feature","properties":{"stop_id":"0264","name":"Trzyciąż Skrzyżowanie","platform":"2","zone":"Trzyciąż"},"geometry":{"type":"Point","coordinates":[19.76519,50.30925]}},
    {"type":"Feature","properties":{"stop_id":"0265","name":"Jangrot Źródło Dłubni","platform":"1","zone":"Trzyciąż"},"geometry":{"type":"Point","coordinates":[19.75542,50.30608]}},
    {"type":"Feature","properties":{"stop_id":"0266","name":"Jangrot Centrum","platform":"2","zone":"Trzyciąż"},"geometry":{"type":"Point","coordinates":[19.74455,50.30855]}},
    {"type":"Feature","properties":{"stop_id":"0267","name":"Jangrot Kosmolów","platform":"1","zone":"Trzyciąż"},"geometry":{"type":"Point","coordinates":[19.72837,50.30952]}},
    {"type":"Feature","properties":{"stop_id":"0268","name":"Jangrot Granica","platform":"2","zone":"Trzyciąż"},"geometry":{"type":"Point","coordinates":[19.70868,50.30666]}},
    {"type":"Feature","properties":{"stop_id":"0269","name":"Michałówka Granica","platform":"1","zone":"Trzyciąż"},"geometry":{"type":"Point","coordinates":[19.69797,50.3054]}},
    {"type":"Feature","properties":{"stop_id":"0270","name":"Michałówka OSP","platform":"2","zone":"Trzyciąż"},"geometry":{"type":"Point","coordinates":[19.68815,50.30804]}},
    {"type":"Feature","properties":{"stop_id":"0271","name":"Michałówka","platform":"2","zone":"Trzyciąż"},"geometry":{"type":"Point","coordinates":[19.6795,50.31089]}},
    {"type":"Feature","properties":{"stop_id":"0297","name":"Michałówka","platform":"1","zone":"Trzyciąż"},"geometry":{"type":"Point","coordinates":[19.67943,50.31059]}},
    {"type":"Feature","properties":{"stop_id":"0298","name":"Michałówka OSP","platform":"1","zone":"Trzyciąż"},"geometry":{"type":"Point","coordinates":[19.68864,50.30769]}},
    {"type":"Feature","properties":{"stop_id":"0299","name":"Michałówka Granica","platform":"2","zone":"Trzyciąż"},"geometry":{"type":"Point","coordinates":[19.70048,50.30587]}},
    {"type":"Feature","properties":{"stop_id":"0300","name":"Jangrot Granica","platform":"1","zone":"Trzyciąż"},"geometry":{"type":"Point","coordinates":[19.7086,50.30654]}},
    {"type":"Feature","properties":{"stop_id":"0301","name":"Jangrot Kosmolów","platform":"2","zone":"Trzyciąż"},"geometry":{"type":"Point","coordinates":[19.72888,50.30939]}},
    {"type":"Feature","properties":{"stop_id":"0302","name":"Jangrot Centrum","platform":"1","zone":"Trzyciąż"},"geometry":{"type":"Point","coordinates":[19.74466,50.30833]}},
    {"type":"Feature","properties":{"stop_id":"0303","name":"Jangrot Źródło Dłubni","platform":"2","zone":"Trzyciąż"},"geometry":{"type":"Point","coordinates":[19.75535,50.30593]}},
    {"type":"Feature","properties":{"stop_id":"0304","name":"Trzyciąż Skrzyżowanie","platform":"1","zone":"Trzyciąż"},"geometry":{"type":"Point","coordinates":[19.766,50.30915]}},
    {"type":"Feature","properties":{"stop_id":"0305","name":"Trzyciąż Skrzyżowanie","platform":"4","zone":"Trzyciąż"},"geometry":{"type":"Point","coordinates":[19.76657,50.31058]}},
    {"type":"Feature","properties":{"stop_id":"0306","name":"Porąbka","platform":"1","zone":"Trzyciąż"},"geometry":{"type":"Point","coordinates":[19.80381,50.33027]}},
    {"type":"Feature","properties":{"stop_id":"0307","name":"Porąbka Studnia","platform":"2","zone":"Trzyciąż"},"geometry":{"type":"Point","coordinates":[19.80657,50.33394]}},
    {"type":"Feature","properties":{"stop_id":"0308","name":"Porąbka Stara Wieś","platform":"1","zone":"Trzyciąż"},"geometry":{"type":"Point","coordinates":[19.81095,50.33537]}},
    {"type":"Feature","properties":{"stop_id":"0309","name":"Porąbka Parcela","platform":"2","zone":"Trzyciąż"},"geometry":{"type":"Point","coordinates":[19.81699,50.33889]}},
    {"type":"Feature","properties":{"stop_id":"0755","name":"Tarnawa Podlas","platform":"1","zone":"Trzyciąż"},"geometry":{"type":"Point","coordinates":[19.86059,50.27252]}},
    {"type":"Feature","properties":{"stop_id":"0756","name":"Tarnawa Podlas","platform":"2","zone":"Trzyciąż"},"geometry":{"type":"Point","coordinates":[19.86061,50.27263]}},
    {"type":"Feature","properties":{"stop_id":"0757","name":"Tarnawa Wieś","platform":"1","zone":"Trzyciąż"},"geometry":{"type":"Point","coordinates":[19.84994,50.2743]}},
    {"type":"Feature","properties":{"stop_id":"0758","name":"Tarnawa Wieś","platform":"2","zone":"Trzyciąż"},"geometry":{"type":"Point","coordinates":[19.85059,50.27409]}},
    {"type":"Feature","properties":{"stop_id":"0759","name":"Tarnawa Kościół","platform":"1","zone":"Trzyciąż"},"geometry":{"type":"Point","coordinates":[19.84145,50.27551]}},
    {"type":"Feature","properties":{"stop_id":"0760","name":"Tarnawa Kościół","platform":"2","zone":"Trzyciąż"},"geometry":{"type":"Point","coordinates":[19.8416,50.2756]}},
    {"type":"Feature","properties":{"stop_id":"0761","name":"Tarnawa Parcela","platform":"1","zone":"Trzyciąż"},"geometry":{"type":"Point","coordinates":[19.82728,50.27742]}},
    {"type":"Feature","properties":{"stop_id":"0762","name":"Tarnawa Parcela","platform":"2","zone":"Trzyciąż"},"geometry":{"type":"Point","coordinates":[19.82687,50.27742]}},
    {"type":"Feature","properties":{"stop_id":"0763","name":"Tarnawa Skrzyżowanie","platform":"1","zone":"Trzyciąż"},"geometry":{"type":"Point","coordinates":[19.82015,50.2791]}},
    {"type":"Feature","properties":{"stop_id":"0764","name":"Tarnawa Skrzyżowanie","platform":"2","zone":"Trzyciąż"},"geometry":{"type":"Point","coordinates":[19.82029,50.27935]}},
    {"type":"Feature","properties":{"stop_id":"0765","name":"Milonki Granica","platform":"1","zone":"Trzyciąż"},"geometry":{"type":"Point","coordinates":[19.81536,50.28049]}},
    {"type":"Feature","properties":{"stop_id":"0766","name":"Milonki Granica","platform":"2","zone":"Trzyciąż"},"geometry":{"type":"Point","coordinates":[19.81504,50.28071]}},
    {"type":"Feature","properties":{"stop_id":"0767","name":"Milonki Skrzyżowanie","platform":"1","zone":"Trzyciąż"},"geometry":{"type":"Point","coordinates":[19.80489,50.28378]}},
    {"type":"Feature","properties":{"stop_id":"0768","name":"Milonki Skrzyżowanie","platform":"2","zone":"Trzyciąż"},"geometry":{"type":"Point","coordinates":[19.80609,50.2833]}},
    {"type":"Feature","properties":{"stop_id":"0769","name":"Milonki II","platform":"1","zone":"Trzyciąż"},"geometry":{"type":"Point","coordinates":[19.80917,50.2881]}},
    {"type":"Feature","properties":{"stop_id":"0770","name":"Milonki II","platform":"2","zone":"Trzyciąż"},"geometry":{"type":"Point","coordinates":[19.80939,50.28803]}},
    {"type":"Feature","properties":{"stop_id":"0771","name":"Milonki","platform":"1","zone":"Trzyciąż"},"geometry":{"type":"Point","coordinates":[19.80146,50.27896]}},
    {"type":"Feature","properties":{"stop_id":"0772","name":"Milonki","platform":"2","zone":"Trzyciąż"},"geometry":{"type":"Point","coordinates":[19.80196,50.27794]}},
    {"type":"Feature","properties":{"stop_id":"0773","name":"Zagórowa","platform":"1","zone":"Trzyciąż"},"geometry":{"type":"Point","coordinates":[19.81262,50.29136]}},
    {"type":"Feature","properties":{"stop_id":"0774","name":"Zagórowa","platform":"2","zone":"Trzyciąż"},"geometry":{"type":"Point","coordinates":[19.81243,50.291]}},
    {"type":"Feature","properties":{"stop_id":"0775","name":"Zagórowa Centrum","platform":"1","zone":"Trzyciąż"},"geometry":{"type":"Point","coordinates":[19.81566,50.2955]}},
    {"type":"Feature","properties":{"stop_id":"0776","name":"Zagórowa Centrum","platform":"2","zone":"Trzyciąż"},"geometry":{"type":"Point","coordinates":[19.8156,50.29537]}},
    {"type":"Feature","properties":{"stop_id":"0777","name":"Zadroże OSP","platform":"1","zone":"Trzyciąż"},"geometry":{"type":"Point","coordinates":[19.79741,50.28605]}},
    {"type":"Feature","properties":{"stop_id":"0778","name":"Zadroże OSP","platform":"2","zone":"Trzyciąż"},"geometry":{"type":"Point","coordinates":[19.79747,50.28615]}},
    {"type":"Feature","properties":{"stop_id":"0779","name":"Zadroże Kościół","platform":"1","zone":"Trzyciąż"},"geometry":{"type":"Point","coordinates":[19.7935,50.28773]}},
    {"type":"Feature","properties":{"stop_id":"0780","name":"Zadroże Kościół","platform":"2","zone":"Trzyciąż"},"geometry":{"type":"Point","coordinates":[19.79436,50.28735]}},
    {"type":"Feature","properties":{"stop_id":"0781","name":"Zadroże Skotnica","platform":"1","zone":"Trzyciąż"},"geometry":{"type":"Point","coordinates":[19.78519,50.29036]}},
    {"type":"Feature","properties":{"stop_id":"0782","name":"Zadroże Skotnica","platform":"2","zone":"Trzyciąż"},"geometry":{"type":"Point","coordinates":[19.78582,50.28996]}},
    {"type":"Feature","properties":{"stop_id":"0783","name":"Zadroże Studzianki","platform":"1","zone":"Trzyciąż"},"geometry":{"type":"Point","coordinates":[19.77655,50.29347]}},
    {"type":"Feature","properties":{"stop_id":"0784","name":"Zadroże Studzianki","platform":"2","zone":"Trzyciąż"},"geometry":{"type":"Point","coordinates":[19.77668,50.29328]}},
    {"type":"Feature","properties":{"stop_id":"0785","name":"Zadroże Gołębia Góra","platform":"1","zone":"Trzyciąż"},"geometry":{"type":"Point","coordinates":[19.77205,50.30178]}},
    {"type":"Feature","properties":{"stop_id":"0786","name":"Zadroże Gołębia Góra","platform":"2","zone":"Trzyciąż"},"geometry":{"type":"Point","coordinates":[19.77194,50.30219]}},
    {"type":"Feature","properties":{"stop_id":"0787","name":"Ściborzyce Most","platform":"1","zone":"Trzyciąż"},"geometry":{"type":"Point","coordinates":[19.9034,50.29723]}},
    {"type":"Feature","properties":{"stop_id":"0788","name":"Ściborzyce Most","platform":"2","zone":"Trzyciąż"},"geometry":{"type":"Point","coordinates":[19.90287,50.29728]}},
    {"type":"Feature","properties":{"stop_id":"0789","name":"Ściborzyce Granica","platform":"1","zone":"Trzyciąż"},"geometry":{"type":"Point","coordinates":[19.88937,50.30052]}},
    {"type":"Feature","properties":{"stop_id":"0790","name":"Ściborzyce Granica","platform":"2","zone":"Trzyciąż"},"geometry":{"type":"Point","coordinates":[19.8895,50.30038]}},
    {"type":"Feature","properties":{"stop_id":"2470","name":"Podchybie","platform":"1","zone":"Trzyciąż"},"geometry":{"type":"Point","coordinates":[19.7532,50.34316]}},
    {"type":"Feature","properties":{"stop_id":"2471","name":"Podchybie","platform":"2","zone":"Trzyciąż"},"geometry":{"type":"Point","coordinates":[19.75347,50.34326]}},
    {"type":"Feature","properties":{"stop_id":"2472","name":"Podchybie Dolna Parcela","platform":"1","zone":"Trzyciąż"},"geometry":{"type":"Point","coordinates":[19.76089,50.34081]}},
    {"type":"Feature","properties":{"stop_id":"2473","name":"Podchybie Dolna Parcela","platform":"2","zone":"Trzyciąż"},"geometry":{"type":"Point","coordinates":[19.76112,50.34081]}},
    {"type":"Feature","properties":{"stop_id":"2474","name":"Sucha Długa","platform":"1","zone":"Trzyciąż"},"geometry":{"type":"Point","coordinates":[19.77192,50.33071]}},
    {"type":"Feature","properties":{"stop_id":"2475","name":"Sucha OSP","platform":"1","zone":"Trzyciąż"},"geometry":{"type":"Point","coordinates":[19.77654,50.3287]}},
    {"type":"Feature","properties":{"stop_id":"2476","name":"Sucha Polna","platform":"1","zone":"Trzyciąż"},"geometry":{"type":"Point","coordinates":[19.78476,50.32517]}},
    {"type":"Feature","properties":{"stop_id":"2477","name":"Porąbka Granica","platform":"1","zone":"Trzyciąż"},"geometry":{"type":"Point","coordinates":[19.79353,50.32175]}},
    {"type":"Feature","properties":{"stop_id":"2478","name":"Glanów Parcele","platform":"1","zone":"Trzyciąż"},"geometry":{"type":"Point","coordinates":[19.80873,50.31647]}},
    {"type":"Feature","properties":{"stop_id":"2479","name":"Glanów Rynek","platform":"1","zone":"Trzyciąż"},"geometry":{"type":"Point","coordinates":[19.81629,50.31611]}},
    {"type":"Feature","properties":{"stop_id":"2480","name":"Glanów Sklep","platform":"1","zone":"Trzyciąż"},"geometry":{"type":"Point","coordinates":[19.82014,50.31613]}},
    {"type":"Feature","properties":{"stop_id":"2481","name":"Glanów Dwór","platform":"1","zone":"Trzyciąż"},"geometry":{"type":"Point","coordinates":[19.82471,50.31638]}},
    {"type":"Feature","properties":{"stop_id":"2482","name":"Glanów Granica","platform":"1","zone":"Trzyciąż"},"geometry":{"type":"Point","coordinates":[19.83197,50.31502]}},
    {"type":"Feature","properties":{"stop_id":"2483","name":"Imbramowice Górne","platform":"1","zone":"Trzyciąż"},"geometry":{"type":"Point","coordinates":[19.84515,50.31015]}},
    {"type":"Feature","properties":{"stop_id":"2484","name":"Imbramowice Cmentarz","platform":"1","zone":"Trzyciąż"},"geometry":{"type":"Point","coordinates":[19.85539,50.30733]}},
    {"type":"Feature","properties":{"stop_id":"2485","name":"Imbramowice Dolne","platform":"1","zone":"Trzyciąż"},"geometry":{"type":"Point","coordinates":[19.86989,50.30312]}},
    {"type":"Feature","properties":{"stop_id":"2486","name":"Małyszyce","platform":"1","zone":"Trzyciąż"},"geometry":{"type":"Point","coordinates":[19.8822,50.30191]}},
    {"type":"Feature","properties":{"stop_id":"2487","name":"Małyszyce","platform":"2","zone":"Trzyciąż"},"geometry":{"type":"Point","coordinates":[19.88219,50.30182]}},
    {"type":"Feature","properties":{"stop_id":"2488","name":"Imbramowice Dolne","platform":"2","zone":"Trzyciąż"},"geometry":{"type":"Point","coordinates":[19.87003,50.30321]}},
    {"type":"Feature","properties":{"stop_id":"2489","name":"Imbramowice Cmentarz","platform":"2","zone":"Trzyciąż"},"geometry":{"type":"Point","coordinates":[19.85538,50.3072]}},
    {"type":"Feature","properties":{"stop_id":"2490","name":"Imbramowice Górne","platform":"2","zone":"Trzyciąż"},"geometry":{"type":"Point","coordinates":[19.84543,50.31017]}},
    {"type":"Feature","properties":{"stop_id":"2491","name":"Glanów Granica","platform":"2","zone":"Trzyciąż"},"geometry":{"type":"Point","coordinates":[19.83217,50.31509]}},
    {"type":"Feature","properties":{"stop_id":"2492","name":"Glanów Dwór","platform":"2","zone":"Trzyciąż"},"geometry":{"type":"Point","coordinates":[19.82533,50.31615]}},
    {"type":"Feature","properties":{"stop_id":"2493","name":"Glanów Rynek","platform":"2","zone":"Trzyciąż"},"geometry":{"type":"Point","coordinates":[19.8166,50.3162]}},
    {"type":"Feature","properties":{"stop_id":"2494","name":"Glanów Parcele","platform":"2","zone":"Trzyciąż"},"geometry":{"type":"Point","coordinates":[19.80881,50.31655]}},
    {"type":"Feature","properties":{"stop_id":"2495","name":"Porąbka Granica","platform":"2","zone":"Trzyciąż"},"geometry":{"type":"Point","coordinates":[19.79381,50.32176]}},
    {"type":"Feature","properties":{"stop_id":"2496","name":"Sucha Polna","platform":"2","zone":"Trzyciąż"},"geometry":{"type":"Point","coordinates":[19.78502,50.32517]}},
    {"type":"Feature","properties":{"stop_id":"2497","name":"Sucha OSP","platform":"2","zone":"Trzyciąż"},"geometry":{"type":"Point","coordinates":[19.77675,50.32872]}},
    {"type":"Feature","properties":{"stop_id":"2498","name":"Sucha Długa","platform":"2","zone":"Trzyciąż"},"geometry":{"type":"Point","coordinates":[19.77181,50.33088]}},
    {"type":"Feature","properties":{"stop_id":"2499","name":"Imbramowice Szkoła","platform":"1","zone":"Trzyciąż"},"geometry":{"type":"Point","coordinates":[19.86333,50.30067]}},
    {"type":"Feature","properties":{"stop_id":"2500","name":"Imbramowice Szkoła","platform":"2","zone":"Trzyciąż"},"geometry":{"type":"Point","coordinates":[19.86327,50.30059]}},
    {"type":"Feature","properties":{"stop_id":"2501","name":"Sucha","platform":"1","zone":"Trzyciąż"},"geometry":{"type":"Point","coordinates":[19.74624,50.33851]}},
    {"type":"Feature","properties":{"stop_id":"2502","name":"Podchybie Las","platform":"1","zone":"Trzyciąż"},"geometry":{"type":"Point","coordinates":[19.75204,50.32936]}},
    {"type":"Feature","properties":{"stop_id":"2503","name":"Podchybie Las","platform":"2","zone":"Trzyciąż"},"geometry":{"type":"Point","coordinates":[19.75237,50.32863]}},
    {"type":"Feature","properties":{"stop_id":"2504","name":"Sucha","platform":"2","zone":"Trzyciąż"},"geometry":{"type":"Point","coordinates":[19.74617,50.33828]}},
    {"type":"Feature","properties":{"stop_id":"2505","name":"Imbramowice Kolonia Dolna I","platform":"1","zone":"Trzyciąż"},"geometry":{"type":"Point","coordinates":[19.84233,50.30247]}},
    {"type":"Feature","properties":{"stop_id":"2506","name":"Imbramowice Kolonia Dolna I","platform":"2","zone":"Trzyciąż"},"geometry":{"type":"Point","coordinates":[19.84228,50.30232]}},
    {"type":"Feature","properties":{"stop_id":"2507","name":"Imbramowice Kolonia Dolna II","platform":"1","zone":"Trzyciąż"},"geometry":{"type":"Point","coordinates":[19.84808,50.30203]}},
    {"type":"Feature","properties":{"stop_id":"2508","name":"Imbramowice Kolonia Dolna II","platform":"2","zone":"Trzyciąż"},"geometry":{"type":"Point","coordinates":[19.848,50.30186]}},
    {"type":"Feature","properties":{"stop_id":"3277","name":"Imbramowice Pole","platform":"1","zone":"Trzyciąż"},"geometry":{"type":"Point","coordinates":[19.8372,50.31356]}},
    {"type":"Feature","properties":{"stop_id":"3278","name":"Imbramowice Pole","platform":"2","zone":"Trzyciąż"},"geometry":{"type":"Point","coordinates":[19.8372,50.31372]}}
  ]
}
