{
  "type": "FeatureCollection",
  "features": [
    {"type":"Feature","properties":{"stop_id":"1679","name":"Zator Rynek","platform":"0","zone":"Zator"},"geometry":{"type":"Point","coordinates":[19.43882,49.99611]}},
    {"type":"Feature","properties":{"stop_id":"1680","name":"Zator Osiedle Morysina II","platform":"1","zone":"Zator"},"geometry":{"type":"Point","coordinates":[19.4542,50.00374]}},
    {"type":"Feature","properties":{"stop_id":"1681","name":"Zator Osiedle Morysina I","platform":"1","zone":"Zator"},"geometry":{"type":"Point","coordinates":[19.44949,50.00216]}},
    {"type":"Feature","properties":{"stop_id":"1682","name":"Zator Bugajska","platform":"1","zone":"Zator"},"geometry":{"type":"Point","coordinates":[19.41931,49.98915]}},
    {"type":"Feature","properties":{"stop_id":"1683","name":"Zator Granica","platform":"1","zone":"Zator"},"geometry":{"type":"Point","coordinates":[19.40389,49.98466]}},
    {"type":"Feature","properties":{"stop_id":"1684","name":"Zator Grabskiego I","platform":"1","zone":"Zator"},"geometry":{"type":"Point","coordinates":[19.41879,49.99819]}},
    {"type":"Feature","properties":{"stop_id":"1685","name":"Zator Park Rozrywki","platform":"1","zone":"Zator"},"geometry":{"type":"Point","coordinates":[19.42209,49.99819]}},
    {"type":"Feature","properties":{"stop_id":"1686","name":"Zator Cmentarz","platform":"1","zone":"Zator"},"geometry":{"type":"Point","coordinates":[19.43181,49.99862]}},
    {"type":"Feature","properties":{"stop_id":"1687","name":"Podolsze Most","platform":"1","zone":"Zator"},"geometry":{"type":"Point","coordinates":[19.43363,50.00566]}},
    {"type":"Feature","properties":{"stop_id":"1688","name":"Podolsze","platform":"1","zone":"Zator"},"geometry":{"type":"Point","coordinates":[19.43453,50.01256]}},
    {"type":"Feature","properties":{"stop_id":"1689","name":"Podolsze Podjarki","platform":"1","zone":"Zator"},"geometry":{"type":"Point","coordinates":[19.4347,50.0205]}},
    {"type":"Feature","properties":{"stop_id":"1690","name":"Zator Podlipki","platform":"1","zone":"Zator"},"geometry":{"type":"Point","coordinates":[19.4301,49.99815]}},
    {"type":"Feature","properties":{"stop_id":"1691","name":"Zator Podlipki","platform":"2","zone":"Zator"},"geometry":{"type":"Point","coordinates":[19.43074,49.99801]}},
    {"type":"Feature","properties":{"stop_id":"1692","name":"Podolsze Podjarki","platform":"2","zone":"Zator"},"geometry":{"type":"Point","coordinates":[19.43501,50.02063]}},
    {"type":"Feature","properties":{"stop_id":"1693","name":"Podolsze","platform":"2","zone":"Zator"},"geometry":{"type":"Point","coordinates":[19.43493,50.01313]}},
    {"type":"Feature","properties":{"stop_id":"1694","name":"Podolsze Most","platform":"2","zone":"Zator"},"geometry":{"type":"Point","coordinates":[19.4333,50.00527]}},
    {"type":"Feature","properties":{"stop_id":"1695","name":"Zator Cmentarz","platform":"2","zone":"Zator"},"geometry":{"type":"Point","coordinates":[19.43157,49.9992]}},
    {"type":"Feature","properties":{"stop_id":"1696","name":"Zator Park Rozrywki","platform":"2","zone":"Zator"},"geometry":{"type":"Point","coordinates":[19.41995,49.99857]}},
    {"type":"Feature","properties":{"stop_id":"1697","name":"Zator Granica","platform":"2","zone":"Zator"},"geometry":{"type":"Point","coordinates":[19.40529,49.98477]}},
    {"type":"Feature","properties":{"stop_id":"1698","name":"Zator Bugajska","platform":"2","zone":"Zator"},"geometry":{"type":"Point","coordinates":[19.42022,49.98938]}},
    {"type":"Feature","properties":{"stop_id":"1699","name":"Zator Osiedle Morysina I","platform":"2","zone":"Zator"},"geometry":{"type":"Point","coordinates":[19.44931,50.00213]}},
    {"type":"Feature","properties":{"stop_id":"1700","name":"Zator Osiedle Morysina II","platform":"2","zone":"Zator"},"geometry":{"type":"Point","coordinates":[19.45413,50.00384]}},
    {"type":"Feature","properties":{"stop_id":"1708","name":"Laskowa","platform":"1","zone":"Zator"},"geometry":{"type":"Point","coordinates":[19.46078,49.97976]}},
    {"type":"Feature","properties":{"stop_id":"1709","name":"Laskowa","platform":"2","zone":"Zator"},"geometry":{"type":"Point","coordinates":[19.4607,49.97978]}},
    {"type":"Feature","properties":{"stop_id":"1710","name":"Zator Zaskawie II","platform":"1","zone":"Zator"},"geometry":{"type":"Point","coordinates":[19.45754,49.99415]}},
    {"type":"Feature","properties":{"stop_id":"1711","name":"Zator Zaskawie II","platform":"2","zone":"Zator"},"geometry":{"type":"Point","coordinates":[19.45744,49.99424]}},
    {"type":"Feature","properties":{"stop_id":"1712","name":"Trzebieńczyce Centrum","platform":"1","zone":"Zator"},"geometry":{"type":"Point","coordinates":[19.4533,49.97769]}},
    {"type":"Feature","properties":{"stop_id":"1713","name":"Trzebieńczyce Centrum","platform":"2","zone":"Zator"},"geometry":{"type":"Point","coordinates":[19.45328,49.97756]}},
    {"type":"Feature","properties":{"stop_id":"1714","name":"Grodzisko Boisko","platform":"1","zone":"Zator"},"geometry":{"type":"Point","coordinates":[19.45426,49.96647]}},
    {"type":"Feature","properties":{"stop_id":"1715","name":"Grodzisko Boisko","platform":"2","zone":"Zator"},"geometry":{"type":"Point","coordinates":[19.45442,49.96649]}},
    {"type":"Feature","properties":{"stop_id":"1716","name":"Łowiczki Szkoła","platform":"1","zone":"Zator"},"geometry":{"type":"Point","coordinates":[19.40771,49.97898]}},
    {"type":"Feature","properties":{"stop_id":"1717","name":"Łowiczki Szkoła","platform":"2","zone":"Zator"},"geometry":{"type":"Point","coordinates":[19.40844,49.97898]}},
    {"type":"Feature","properties":{"stop_id":"1718","name":"Łowiczki","platform":"1","zone":"Zator"},"geometry":{"type":"Point","coordinates":[19.41191,49.97493]}},
    {"type":"Feature","properties":{"stop_id":"1719","name":"Łowiczki","platform":"2","zone":"Zator"},"geometry":{"type":"Point","coordinates":[19.41186,49.97452]}},
    {"type":"Feature","properties":{"stop_id":"1720","name":"Łowiczki Granica","platform":"1","zone":"Zator"},"geometry":{"type":"Point","coordinates":[19.41207,49.9652]}},
    {"type":"Feature","properties":{"stop_id":"1721","name":"Łowiczki Granica","platform":"2","zone":"Zator"},"geometry":{"type":"Point","coordinates":[19.41188,49.96496]}},
    {"type":"Feature","properties":{"stop_id":"1722","name":"Smolice Lipowa","platform":"2","zone":"Zator"},"geometry":{"type":"Point","coordinates":[19.48807,50.02423]}},
    {"type":"Feature","properties":{"stop_id":"1723","name":"Smolice Wał","platform":"2","zone":"Zator"},"geometry":{"type":"Point","coordinates":[19.47674,50.02653]}},
    {"type":"Feature","properties":{"stop_id":"1724","name":"Smolice Sklep","platform":"2","zone":"Zator"},"geometry":{"type":"Point","coordinates":[19.46311,50.0296]}},
    {"type":"Feature","properties":{"stop_id":"1725","name":"Smolice Szkoła","platform":"2","zone":"Zator"},"geometry":{"type":"Point","coordinates":[19.4576,50.02798]}},
    {"type":"Feature","properties":{"stop_id":"1726","name":"Smolice Kapliczka","platform":"2","zone":"Zator"},"geometry":{"type":"Point","coordinates":[19.45592,50.02529]}},
    {"type":"Feature","properties":{"stop_id":"1727","name":"Smolice Żwirownia","platform":"2","zone":"Zator"},"geometry":{"type":"Point","coordinates":[19.45258,50.01892]}},
    {"type":"Feature","properties":{"stop_id":"1728","name":"Palczowice Rabusiowice","platform":"1","zone":"Zator"},"geometry":{"type":"Point","coordinates":[19.46628,50.01435]}},
    {"type":"Feature","properties":{"stop_id":"1729","name":"Palczowice Rabusiowice","platform":"2","zone":"Zator"},"geometry":{"type":"Point","coordinates":[19.46615,50.01435]}},
    {"type":"Feature","properties":{"stop_id":"1730","name":"Smolice Żwirownia","platform":"1","zone":"Zator"},"geometry":{"type":"Point","coordinates":[19.45244,50.01894]}},
    {"type":"Feature","properties":{"stop_id":"1731","name":"Smolice Kapliczka","platform":"1","zone":"Zator"},"geometry":{"type":"Point","coordinates":[19.45576,50.02525]}},
    {"type":"Feature","properties":{"stop_id":"1732","name":"Smolice Szkoła","platform":"1","zone":"Zator"},"geometry":{"type":"Point","coordinates":[19.45789,50.02804]}},
    {"type":"Feature","properties":{"stop_id":"1733","name":"Smolice Sklep","platform":"1","zone":"Zator"},"geometry":{"type":"Point","coordinates":[19.46322,50.02971]}},
    {"type":"Feature","properties":{"stop_id":"1734","name":"Smolice Wał","platform":"1","zone":"Zator"},"geometry":{"type":"Point","coordinates":[19.47688,50.02631]}},
    {"type":"Feature","properties":{"stop_id":"1735","name":"Smolice Lipowa","platform":"1","zone":"Zator"},"geometry":{"type":"Point","coordinates":[19.48833,50.02424]}},
    {"type":"Feature","properties":{"stop_id":"1736","name":"Graboszyce Myto","platform":"1","zone":"Zator"},"geometry":{"type":"Point","coordinates":[19.44376,49.95987]}},
    {"type":"Feature","properties":{"stop_id":"1737","name":"Graboszyce Myto","platform":"2","zone":"Zator"},"geometry":{"type":"Point","coordinates":[19.44375,49.95973]}},
    {"type":"Feature","properties":{"stop_id":"1738","name":"Graboszyce Zamek","platform":"1","zone":"Zator"},"geometry":{"type":"Point","coordinates":[19.44813,49.94791]}},
    {"type":"Feature","properties":{"stop_id":"1739","name":"Graboszyce Zamek","platform":"2","zone":"Zator"},"geometry":{"type":"Point","coordinates":[19.44803,49.94839]}},
    {"type":"Feature","properties":{"stop_id":"1740","name":"Rudze Szkoła","platform":"0","zone":"Zator"},"geometry":{"type":"Point","coordinates":[19.43707,49.97337]}},
    {"type":"Feature","properties":{"stop_id":"1741","name":"Zator Szkoła","platform":"0","zone":"Zator"},"geometry":{"type":"Point","coordinates":[19.43541,49.99455]}},
    {"type":"Feature","properties":{"stop_id":"1742","name":"Graboszyce","platform":"1","zone":"Zator"},"geometry":{"type":"Point","coordinates":[19.44295,49.96]}},
    {"type":"Feature","properties":{"stop_id":"1743","name":"Graboszyce","platform":"2","zone":"Zator"},"geometry":{"type":"Point","coordinates":[19.44307,49.96042]}},
    {"type":"Feature","properties":{"stop_id":"1744","name":"Rudze","platform":"1","zone":"Zator"},"geometry":{"type":"Point","coordinates":[19.44006,49.97564]}},
    {"type":"Feature","properties":{"stop_id":"1745","name":"Rudze Trzebieńczyce","platform":"2","zone":"Zator"},"geometry":{"type":"Point","coordinates":[19.44013,49.97462]}},
    {"type":"Feature","properties":{"stop_id":"1746","name":"Zator Stacja Paliw","platform":"1","zone":"Zator"},"geometry":{"type":"Point","coordinates":[19.43789,49.98398]}},
    {"type":"Feature","properties":{"stop_id":"1747","name":"Zator Stacja Paliw","platform":"2","zone":"Zator"},"geometry":{"type":"Point","coordinates":[19.43798,49.98528]}},
    {"type":"Feature","properties":{"stop_id":"1748","name":"Zator Blich","platform":"0","zone":"Zator"},"geometry":{"type":"Point","coordinates":[19.43933,49.99851]}},
    {"type":"Feature","properties":{"stop_id":"1749","name":"Zator Palczowice","platform":"1","zone":"Zator"},"geometry":{"type":"Point","coordinates":[19.44864,49.99951]}},
    {"type":"Feature","properties":{"stop_id":"1750","name":"Zator Palczowice","platform":"2","zone":"Zator"},"geometry":{"type":"Point","coordinates":[19.45018,49.99941]}},
    {"type":"Feature","properties":{"stop_id":"1751","name":"Zator Zaskawie","platform":"0","zone":"Zator"},"geometry":{"type":"Point","coordinates":[19.45945,49.99456]}},
    {"type":"Feature","properties":{"stop_id":"1752","name":"Grodzisko PKP","platform":"1","zone":"Zator"},"geometry":{"type":"Point","coordinates":[19.45734,49.96117]}},
    {"type":"Feature","properties":{"stop_id":"1753","name":"Laskowa Wiglowice","platform":"1","zone":"Zator"},"geometry":{"type":"Point","coordinates":[19.45791,49.99119]}},
    {"type":"Feature","properties":{"stop_id":"1754","name":"Laskowa Wiglowice","platform":"2","zone":"Zator"},"geometry":{"type":"Point","coordinates":[19.45778,49.99115]}},
    {"type":"Feature","properties":{"stop_id":"1755","name":"Zator Słowackiego","platform":"2","zone":"Zator"},"geometry":{"type":"Point","coordinates":[19.43259,49.99613]}},
    {"type":"Feature","properties":{"stop_id":"1756","name":"Zator Słowackiego","platform":"1","zone":"Zator"},"geometry":{"type":"Point","coordinates":[19.43242,49.99707]}},
    {"type":"Feature","properties":{"stop_id":"1757","name":"Graboszyce Szkoła","platform":"1","zone":"Zator"},"geometry":{"type":"Point","coordinates":[19.44937,49.94707]}},
    {"type":"Feature","properties":{"stop_id":"1758","name":"Rudze Młyn","platform":"1","zone":"Zator"},"geometry":{"type":"Point","coordinates":[19.42256,49.96606]}},
    {"type":"Feature","properties":{"stop_id":"1759","name":"Rudze Młyn","platform":"2","zone":"Zator"},"geometry":{"type":"Point","coordinates":[19.42247,49.96616]}},
    {"type":"Feature","properties":{"stop_id":"1760","name":"Zator Dworzec Kolejowy","platform":"0","zone":"Zator"},"geometry":{"type":"Point","coordinates":[19.42945,50.00167]}},
    {"type":"Feature","properties":{"stop_id":"2905","name":"Rudze Dworska","platform":"2","zone":"Zator"},"geometry":{"type":"Point","coordinates":[19.43616,49.97029]}},
    {"type":"Feature","properties":{"stop_id":"2906","name":"Rudze Dworska","platform":"1","zone":"Zator"},"geometry":{"type":"Point","coordinates":[19.43672,49.9704]}},
    {"type":"Feature","properties":{"stop_id":"3297","name":"Laskowa Boisko","platform":"2","zone":"Zator"},"geometry":{"type":"Point","coordinates":[19.4638,49.98342]}},
    {"type":"Feature","properties":{"stop_id":"3298","name":"Laskowa Boisko","platform":"1","zone":"Zator"},"geometry":{"type":"Point","coordinates":[19.46393,49.98344]}},
    {"type":"Feature","properties":{"stop_id":"3330","name":"Zator Agropunkt","platform":"2","zone":"Zator"},"geometry":{"type":"Point","coordinates":[19.43974,49.99362]}},
    {"type":"Feature","properties":{"stop_id":"3331","name":"Zator Agropunkt","platform":"1","zone":"Zator"},"geometry":{"type":"Point","coordinates":[19.4403,49.99404]}}
  ]
}
