{
  "type": "FeatureCollection",
  "features": [
    {
      "type": "Feature",
      "properties": {
        "stop_id": "0001",
        "name": "Wolbrom Nowa PKS",
        "platform": "0",
        "zone": "Wolbrom"
      },
      "geometry": {
        "type": "Point",
        "coordinates": [19.75926, 50.38789]
      }
    },
    {
      "type": "Feature",
      "properties": {
        "stop_id": "1679",
        "name": "Zator Rynek",
        "platform": "0",
        "zone": "Zator"
      },
      "geometry": {
        "type": "Point",
        "coordinates": [19.43882, 49.99611]
      }
    },
    {
      "type": "Feature",
      "properties": {
        "stop_id": "2840",
        "name": "Żarnowiec Rynek",
        "platform": "0",
        "zone": "Żarnowiec"
      },
      "geometry": {
        "type": "Point",
        "coordinates": [19.86286, 50.48414]
      }
    }
  ]
}
